{
"type": "FeatureCollection",
"name": "nov2",
"features": [
{ "type": "Feature", "properties": { "Id": 4372, "gridcode": 0, "Shape_Leng": 195641.574758, "Shape_Area": 29688083.271000002 }, "geometry": { "type": "Polygon", "coordinates": [ [ [ 6.7702478, 7.8397202 ], [ 6.7694952, 7.8396308 ], [ 6.7688235, 7.8391895 ], [ 6.7684369, 7.839349 ], [ 6.7682715, 7.8390781 ], [ 6.7671024, 7.8386878 ], [ 6.7657216, 7.8386115 ], [ 6.7656266, 7.8385118 ], [ 6.7640977, 7.8380081 ], [ 6.7620692, 7.8370134 ], [ 6.760708, 7.8359719 ], [ 6.7596496, 7.8359448 ], [ 6.7602046, 7.8366823 ], [ 6.7601954, 7.8370388 ], [ 6.7607687, 7.8374308 ], [ 6.7614678, 7.8377736 ], [ 6.7614521, 7.8383801 ], [ 6.7629364, 7.8388691 ], [ 6.7636297, 7.8395965 ], [ 6.7638137, 7.8397746 ], [ 6.7639912, 7.8401445 ], [ 6.7648561, 7.8401315 ], [ 6.7650036, 7.8402038 ], [ 6.7576869, 7.8401875 ], [ 6.7578431, 7.8399325 ], [ 6.7578149, 7.8397353 ], [ 6.7582946, 7.8393702 ], [ 6.7581696, 7.8388542 ], [ 6.7564004, 7.8396462 ], [ 6.7562128, 7.839182 ], [ 6.7560736, 7.8390238 ], [ 6.755755, 7.8397885 ], [ 6.7551635, 7.8396981 ], [ 6.7542697, 7.8385305 ], [ 6.7537562, 7.8387286 ], [ 6.7537581, 7.8383671 ], [ 6.7535769, 7.8383661 ], [ 6.7535788, 7.8380046 ], [ 6.7533975, 7.8380036 ], [ 6.753326, 7.8375347 ], [ 6.7531133, 7.8372051 ], [ 6.7529673, 7.8368097 ], [ 6.7526102, 7.8362563 ], [ 6.7523903, 7.8353825 ], [ 6.7517806, 7.8352833 ], [ 6.7517815, 7.8351025 ], [ 6.7516003, 7.8351016 ], [ 6.7515394, 7.8348808 ], [ 6.7513796, 7.8350385 ], [ 6.7516003, 7.8351016 ], [ 6.7515993, 7.8352823 ], [ 6.7517806, 7.8352833 ], [ 6.7516788, 7.8355491 ], [ 6.7517485, 7.8362691 ], [ 6.7514943, 7.8361026 ], [ 6.751533, 7.8357423 ], [ 6.7513156, 7.8359052 ], [ 6.7510769, 7.8364462 ], [ 6.7505873, 7.8359146 ], [ 6.7507813, 7.8342693 ], [ 6.7510603, 7.8343756 ], [ 6.7511497, 7.8346076 ], [ 6.7512416, 7.8343765 ], [ 6.7515342, 7.8345236 ], [ 6.7517542, 7.8340805 ], [ 6.750881, 7.8340131 ], [ 6.7508819, 7.8338323 ], [ 6.7510015, 7.8335527 ], [ 6.7506295, 7.8332936 ], [ 6.7507801, 7.8328209 ], [ 6.751225, 7.8326576 ], [ 6.7509355, 7.8314545 ], [ 6.7513356, 7.8305186 ], [ 6.7509768, 7.8299626 ], [ 6.7508318, 7.8293864 ], [ 6.75062, 7.8288761 ], [ 6.7505475, 7.828588 ], [ 6.7507802, 7.8284988 ], [ 6.7505485, 7.8284072 ], [ 6.7505495, 7.8282264 ], [ 6.7504601, 7.8279944 ], [ 6.7503682, 7.8282254 ], [ 6.7502614, 7.828151 ], [ 6.7501059, 7.8269271 ], [ 6.7496317, 7.8261924 ], [ 6.7499586, 7.8259698 ], [ 6.7497311, 7.8256173 ], [ 6.7495852, 7.8252219 ], [ 6.7494783, 7.8251475 ], [ 6.7495773, 7.823972 ], [ 6.7493501, 7.8230679 ], [ 6.7495868, 7.8221668 ], [ 6.749576, 7.8214508 ], [ 6.7499571, 7.8207227 ], [ 6.7499175, 7.8180995 ], [ 6.7500155, 7.8143037 ], [ 6.7499951, 7.8129478 ], [ 6.7499997, 7.812767 ], [ 6.7499956, 7.8124958 ], [ 6.750147, 7.8066345 ], [ 6.7498554, 7.8051754 ], [ 6.7495406, 7.8024869 ], [ 6.7494191, 7.8023692 ], [ 6.7495575, 7.7994288 ], [ 6.7493488, 7.7992018 ], [ 6.749074, 7.7991134 ], [ 6.7490041, 7.798536 ], [ 6.7487153, 7.7983884 ], [ 6.7487163, 7.7982076 ], [ 6.748535, 7.7982066 ], [ 6.748536, 7.7980259 ], [ 6.7481735, 7.7980239 ], [ 6.7481744, 7.7978432 ], [ 6.7481754, 7.7976624 ], [ 6.7481773, 7.7973008 ], [ 6.7479961, 7.7972999 ], [ 6.7477565, 7.796817 ], [ 6.7476365, 7.7967556 ], [ 6.7475471, 7.7964537 ], [ 6.7468358, 7.795208 ], [ 6.7467389, 7.7951239 ], [ 6.7465563, 7.7943983 ], [ 6.7462753, 7.7939629 ], [ 6.7461294, 7.7935675 ], [ 6.7460225, 7.7934931 ], [ 6.7460245, 7.7931315 ], [ 6.7458432, 7.7931305 ], [ 6.7454031, 7.7919464 ], [ 6.7450319, 7.791054 ], [ 6.7448671, 7.7904974 ], [ 6.7443769, 7.7891437 ], [ 6.7440977, 7.7878873 ], [ 6.7438784, 7.7876968 ], [ 6.7438794, 7.787516 ], [ 6.7440322, 7.787412 ], [ 6.7438833, 7.7867929 ], [ 6.7438842, 7.7866121 ], [ 6.7438125, 7.7843453 ], [ 6.7436186, 7.784177 ], [ 6.7434519, 7.7839819 ], [ 6.7427286, 7.7836553 ], [ 6.7429467, 7.783606 ], [ 6.7435986, 7.7836618 ], [ 6.7440667, 7.7828355 ], [ 6.743813, 7.7801136 ], [ 6.7439769, 7.7782065 ], [ 6.7438406, 7.776393 ], [ 6.7440419, 7.7760375 ], [ 6.7438453, 7.7756817 ], [ 6.7437774, 7.7726917 ], [ 6.7437784, 7.772511 ], [ 6.744011, 7.7724218 ], [ 6.7437793, 7.7723302 ], [ 6.7437803, 7.7721494 ], [ 6.7437813, 7.7719687 ], [ 6.7439625, 7.7719696 ], [ 6.7439673, 7.7710658 ], [ 6.7440687, 7.7709857 ], [ 6.7444377, 7.7697224 ], [ 6.7445207, 7.7692609 ], [ 6.7447904, 7.7690317 ], [ 6.7449715, 7.7684431 ], [ 6.7451905, 7.7682569 ], [ 6.7460791, 7.767197 ], [ 6.7461664, 7.766558 ], [ 6.7463477, 7.766559 ], [ 6.7463506, 7.7660167 ], [ 6.7466135, 7.7658089 ], [ 6.7462895, 7.7633895 ], [ 6.7461838, 7.7633041 ], [ 6.7461847, 7.7631233 ], [ 6.7461857, 7.7629426 ], [ 6.7461867, 7.7627618 ], [ 6.7460861, 7.7602795 ], [ 6.7458386, 7.7600483 ], [ 6.7458396, 7.7598675 ], [ 6.7458627, 7.755529 ], [ 6.7456815, 7.755528 ], [ 6.7456834, 7.7551665 ], [ 6.7457781, 7.7523313 ], [ 6.7461446, 7.7514513 ], [ 6.7465648, 7.7511314 ], [ 6.7464962, 7.7506513 ], [ 6.74655, 7.7503011 ], [ 6.7462773, 7.7496261 ], [ 6.7458221, 7.7496908 ], [ 6.745778, 7.7493821 ], [ 6.7458635, 7.7488253 ], [ 6.7458515, 7.7487497 ], [ 6.7468778, 7.748752 ], [ 6.7468759, 7.7487931 ], [ 6.7465228, 7.749116 ], [ 6.7468965, 7.7492943 ], [ 6.74688, 7.7496591 ], [ 6.7469205, 7.7508344 ], [ 6.7468757, 7.7518284 ], [ 6.746885, 7.7520996 ], [ 6.7467941, 7.7541172 ], [ 6.747065, 7.7543703 ], [ 6.7474958, 7.7543556 ], [ 6.7473415, 7.7501135 ], [ 6.7478809, 7.7500316 ], [ 6.7473979, 7.7492832 ], [ 6.7475998, 7.7487537 ], [ 6.7477008, 7.7487539 ], [ 6.7479747, 7.749154 ], [ 6.7483366, 7.7489216 ], [ 6.7485419, 7.7489687 ], [ 6.7485532, 7.7487558 ], [ 6.7603636, 7.7487822 ], [ 6.7605425, 7.7494931 ], [ 6.7607562, 7.7496419 ], [ 6.7608712, 7.7503062 ], [ 6.7614825, 7.7517573 ], [ 6.7619062, 7.7533623 ], [ 6.7622419, 7.7542678 ], [ 6.7624356, 7.7560768 ], [ 6.7625342, 7.7561593 ], [ 6.7623888, 7.7575586 ], [ 6.7625079, 7.759142 ], [ 6.7623915, 7.7604973 ], [ 6.7624323, 7.7610398 ], [ 6.762347, 7.7620337 ], [ 6.7624626, 7.7635709 ], [ 6.7623719, 7.7646271 ], [ 6.7626029, 7.7667351 ], [ 6.7634578, 7.7687351 ], [ 6.7636507, 7.7690842 ], [ 6.7639643, 7.7697952 ], [ 6.7641897, 7.7699909 ], [ 6.7643837, 7.7708641 ], [ 6.764812, 7.7709952 ], [ 6.7646866, 7.7715776 ], [ 6.7653517, 7.7728473 ], [ 6.7657896, 7.7739867 ], [ 6.7661543, 7.7748856 ], [ 6.7670139, 7.7773144 ], [ 6.7672186, 7.7779714 ], [ 6.7674039, 7.7785078 ], [ 6.7674897, 7.7787828 ], [ 6.7672216, 7.7790192 ], [ 6.7680367, 7.7822245 ], [ 6.7684702, 7.7828505 ], [ 6.7687227, 7.7836815 ], [ 6.7700954, 7.7861617 ], [ 6.7703496, 7.7863906 ], [ 6.7704348, 7.786671 ], [ 6.7715311, 7.7886993 ], [ 6.7717863, 7.7889291 ], [ 6.7718913, 7.7894937 ], [ 6.772956, 7.7911916 ], [ 6.7746124, 7.7943519 ], [ 6.7750184, 7.7947311 ], [ 6.7750165, 7.7950926 ], [ 6.7751978, 7.7950936 ], [ 6.7751968, 7.7952744 ], [ 6.7753781, 7.7952753 ], [ 6.7755402, 7.7959196 ], [ 6.7759171, 7.7961821 ], [ 6.7761831, 7.7966389 ], [ 6.77673, 7.797358 ], [ 6.7772631, 7.7980908 ], [ 6.777473, 7.7982868 ], [ 6.7792525, 7.8002637 ], [ 6.7796368, 7.8008641 ], [ 6.7824764, 7.8029363 ], [ 6.7829502, 7.8030886 ], [ 6.7830341, 7.8032113 ], [ 6.7835655, 7.8035604 ], [ 6.7840349, 7.8036367 ], [ 6.7843328, 7.8040718 ], [ 6.7847571, 7.8041828 ], [ 6.7850163, 7.8045614 ], [ 6.7856606, 7.8047299 ], [ 6.7857446, 7.8048525 ], [ 6.786276, 7.8052016 ], [ 6.7865641, 7.805277 ], [ 6.786862, 7.8057121 ], [ 6.7872863, 7.8058231 ], [ 6.7875431, 7.8061464 ], [ 6.7882593, 7.8065713 ], [ 6.7901063, 7.8068493 ], [ 6.7913467, 7.807391 ], [ 6.7919097, 7.8075547 ], [ 6.7920699, 7.8077563 ], [ 6.7926329, 7.80792 ], [ 6.7931556, 7.8081235 ], [ 6.7934371, 7.8082054 ], [ 6.7935156, 7.8083078 ], [ 6.7939084, 7.8086135 ], [ 6.7938665, 7.8088867 ], [ 6.7945067, 7.8093848 ], [ 6.7958371, 7.8095805 ], [ 6.7967699, 7.8099519 ], [ 6.7976988, 7.8101142 ], [ 6.7982172, 7.8105018 ], [ 6.7993708, 7.8109283 ], [ 6.799298, 7.8114025 ], [ 6.7993811, 7.81175 ], [ 6.7996839, 7.811363 ], [ 6.8001185, 7.8114293 ], [ 6.8003074, 7.8116761 ], [ 6.7998902, 7.8117472 ], [ 6.8002077, 7.8119051 ], [ 6.8003074, 7.8116761 ], [ 6.800589, 7.811758 ], [ 6.8018427, 7.8127687 ], [ 6.8024761, 7.8129529 ], [ 6.8027142, 7.8132638 ], [ 6.8034333, 7.813557 ], [ 6.8034323, 7.8139901 ], [ 6.8028573, 7.813591 ], [ 6.8025422, 7.8139629 ], [ 6.803106, 7.8144894 ], [ 6.8034301, 7.8149975 ], [ 6.8034281, 7.8158811 ], [ 6.8033673, 7.8158501 ], [ 6.8032277, 7.8156029 ], [ 6.8025363, 7.815868 ], [ 6.8024591, 7.8162069 ], [ 6.8020965, 7.816205 ], [ 6.8023477, 7.8156417 ], [ 6.8021003, 7.8154819 ], [ 6.801919, 7.8154809 ], [ 6.8019181, 7.8156617 ], [ 6.8016661, 7.8154796 ], [ 6.80192, 7.8153002 ], [ 6.8021013, 7.8153011 ], [ 6.8023339, 7.8152119 ], [ 6.8021022, 7.8151203 ], [ 6.8020252, 7.8148311 ], [ 6.8009791, 7.8150051 ], [ 6.8007413, 7.8138208 ], [ 6.8003767, 7.8132264 ], [ 6.8001834, 7.8127339 ], [ 6.7991134, 7.8121351 ], [ 6.7990366, 7.8120311 ], [ 6.7992693, 7.8119419 ], [ 6.7990376, 7.8118503 ], [ 6.7989584, 7.8115684 ], [ 6.7976409, 7.8105063 ], [ 6.797409, 7.8112994 ], [ 6.7966858, 7.8109341 ], [ 6.7966867, 7.8107533 ], [ 6.7965055, 7.8107524 ], [ 6.7962528, 7.8103222 ], [ 6.7958351, 7.8104594 ], [ 6.7959551, 7.8108141 ], [ 6.7951706, 7.8104511 ], [ 6.7948759, 7.8103823 ], [ 6.7947925, 7.8102848 ], [ 6.7940548, 7.8101136 ], [ 6.7931328, 7.8093856 ], [ 6.7927846, 7.8095532 ], [ 6.7929853, 7.8101071 ], [ 6.79206, 7.8102705 ], [ 6.7918844, 7.8104716 ], [ 6.7917109, 7.8102687 ], [ 6.7911293, 7.8097636 ], [ 6.7905354, 7.8090688 ], [ 6.7899271, 7.8099148 ], [ 6.7902453, 7.810636 ], [ 6.7908008, 7.810987 ], [ 6.7911794, 7.81143 ], [ 6.7923362, 7.8121585 ], [ 6.7935243, 7.8120696 ], [ 6.7951521, 7.8125676 ], [ 6.7960327, 7.8131972 ], [ 6.7975358, 7.8141225 ], [ 6.7994261, 7.8154911 ], [ 6.7998951, 7.8160396 ], [ 6.8006727, 7.8167149 ], [ 6.8012961, 7.817719 ], [ 6.8020819, 7.8181616 ], [ 6.8029076, 7.8180998 ], [ 6.8034224, 7.818424 ], [ 6.8033872, 7.8341609 ], [ 6.8033111, 7.8340089 ], [ 6.8029101, 7.833926 ], [ 6.802911, 7.8337453 ], [ 6.8027298, 7.8337443 ], [ 6.8027307, 7.8335635 ], [ 6.8025494, 7.8335626 ], [ 6.8025504, 7.8333818 ], [ 6.8023691, 7.8333809 ], [ 6.8022486, 7.8331401 ], [ 6.8020084, 7.8330174 ], [ 6.8018271, 7.8330165 ], [ 6.8018281, 7.8328357 ], [ 6.8016468, 7.8328347 ], [ 6.8016478, 7.832654 ], [ 6.8014665, 7.832653 ], [ 6.8011049, 7.8324704 ], [ 6.8011058, 7.8322896 ], [ 6.8009245, 7.8322886 ], [ 6.8009255, 7.8321079 ], [ 6.8007442, 7.8321069 ], [ 6.8007451, 7.8319261 ], [ 6.8005639, 7.8319252 ], [ 6.8005648, 7.8317444 ], [ 6.8003835, 7.8317435 ], [ 6.8003845, 7.8315627 ], [ 6.8002032, 7.8315617 ], [ 6.8000219, 7.8315608 ], [ 6.8000229, 7.83138 ], [ 6.7998416, 7.8313791 ], [ 6.7998425, 7.8311983 ], [ 6.7996613, 7.8311973 ], [ 6.7996622, 7.8310166 ], [ 6.7994809, 7.8310156 ], [ 6.7992719, 7.8307526 ], [ 6.7977192, 7.8298314 ], [ 6.7967693, 7.8295552 ], [ 6.7967703, 7.8293744 ], [ 6.7964077, 7.8293725 ], [ 6.7964087, 7.8291917 ], [ 6.7960461, 7.8291898 ], [ 6.796047, 7.8290091 ], [ 6.7956845, 7.8290072 ], [ 6.7956854, 7.8288264 ], [ 6.7953229, 7.8288245 ], [ 6.7951416, 7.8288235 ], [ 6.7951425, 7.8286428 ], [ 6.79478, 7.8286409 ], [ 6.7947809, 7.8284601 ], [ 6.7945997, 7.8284591 ], [ 6.7944184, 7.8284582 ], [ 6.7944193, 7.8282774 ], [ 6.7940568, 7.8282755 ], [ 6.7939951, 7.8281523 ], [ 6.7932733, 7.8277898 ], [ 6.7927907, 7.8277265 ], [ 6.7926094, 7.8277256 ], [ 6.7926103, 7.8275448 ], [ 6.7922478, 7.8275429 ], [ 6.7922487, 7.8273621 ], [ 6.7917049, 7.8273593 ], [ 6.7917059, 7.8271785 ], [ 6.7913433, 7.8271766 ], [ 6.7913443, 7.8269958 ], [ 6.791163, 7.8269949 ], [ 6.7909817, 7.8269939 ], [ 6.7908538, 7.8268268 ], [ 6.7903613, 7.8265271 ], [ 6.7897166, 7.8262642 ], [ 6.7897175, 7.8260834 ], [ 6.7891737, 7.8260806 ], [ 6.7890843, 7.8258485 ], [ 6.7889924, 7.8260796 ], [ 6.7884505, 7.8257152 ], [ 6.7884514, 7.8255344 ], [ 6.7882702, 7.8255335 ], [ 6.7880889, 7.8255325 ], [ 6.7880898, 7.8253517 ], [ 6.7877273, 7.8253498 ], [ 6.787546, 7.8253489 ], [ 6.787547, 7.8251681 ], [ 6.7871844, 7.8251662 ], [ 6.7868218, 7.8251643 ], [ 6.7868228, 7.8249835 ], [ 6.7866415, 7.8249826 ], [ 6.7866425, 7.8248018 ], [ 6.7862799, 7.8247999 ], [ 6.786133, 7.8245852 ], [ 6.7855567, 7.8244345 ], [ 6.78539, 7.8242394 ], [ 6.7850022, 7.8239027 ], [ 6.7844974, 7.8233121 ], [ 6.782946, 7.8223351 ], [ 6.7823052, 7.8222481 ], [ 6.7822249, 7.822147 ], [ 6.7809581, 7.8217791 ], [ 6.7801328, 7.8216943 ], [ 6.7799515, 7.8216934 ], [ 6.7799525, 7.8215126 ], [ 6.7795899, 7.8215107 ], [ 6.7794086, 7.8215097 ], [ 6.779347, 7.8213865 ], [ 6.7786252, 7.821024 ], [ 6.7783239, 7.8209617 ], [ 6.7783248, 7.8207809 ], [ 6.7779623, 7.820779 ], [ 6.777781, 7.820778 ], [ 6.7776728, 7.82062 ], [ 6.7768766, 7.8204117 ], [ 6.7768775, 7.8202309 ], [ 6.776515, 7.820229 ], [ 6.7763459, 7.8200313 ], [ 6.7751173, 7.8192575 ], [ 6.773396, 7.8186168 ], [ 6.7726136, 7.8188472 ], [ 6.772714, 7.8191243 ], [ 6.7723514, 7.8191224 ], [ 6.7702076, 7.8191726 ], [ 6.7703555, 7.8194734 ], [ 6.7701742, 7.8194725 ], [ 6.7696304, 7.8194696 ], [ 6.7695695, 7.8192488 ], [ 6.7694097, 7.8194065 ], [ 6.7696304, 7.8194696 ], [ 6.7696295, 7.8196504 ], [ 6.7696285, 7.8198311 ], [ 6.7696275, 7.8200119 ], [ 6.7698088, 7.8200129 ], [ 6.7698877, 7.8204136 ], [ 6.7701685, 7.8205571 ], [ 6.7702435, 7.8208553 ], [ 6.7710058, 7.821356 ], [ 6.7714326, 7.8214677 ], [ 6.7717419, 7.8219029 ], [ 6.7730533, 7.8222553 ], [ 6.7726241, 7.8225587 ], [ 6.7728761, 7.8227408 ], [ 6.772955, 7.8231415 ], [ 6.7732357, 7.823285 ], [ 6.7732338, 7.8236466 ], [ 6.7734151, 7.8236475 ], [ 6.7737143, 7.8242504 ], [ 6.7739551, 7.8243735 ], [ 6.774034, 7.8247742 ], [ 6.7743148, 7.8249177 ], [ 6.7743937, 7.8253185 ], [ 6.7747945, 7.8255233 ], [ 6.7751541, 7.8262466 ], [ 6.7753947, 7.8263697 ], [ 6.7753938, 7.8265504 ], [ 6.7755751, 7.8265514 ], [ 6.7755731, 7.8269129 ], [ 6.7757544, 7.8269139 ], [ 6.7757535, 7.8270947 ], [ 6.7759347, 7.8270956 ], [ 6.7759338, 7.8272764 ], [ 6.776115, 7.8272774 ], [ 6.7762944, 7.8276399 ], [ 6.7762934, 7.8278206 ], [ 6.7764747, 7.8278216 ], [ 6.7765536, 7.8282223 ], [ 6.7768344, 7.8283658 ], [ 6.7768334, 7.8285466 ], [ 6.7770147, 7.8285476 ], [ 6.7770128, 7.8289091 ], [ 6.7771941, 7.8289101 ], [ 6.7773146, 7.8291508 ], [ 6.7775547, 7.8292735 ], [ 6.7775538, 7.8294543 ], [ 6.777735, 7.8294553 ], [ 6.7777341, 7.829636 ], [ 6.7779154, 7.829637 ], [ 6.7779144, 7.8298178 ], [ 6.7780957, 7.8298187 ], [ 6.7780947, 7.8299995 ], [ 6.7780938, 7.8301803 ], [ 6.778275, 7.8301812 ], [ 6.7784563, 7.8301822 ], [ 6.7784554, 7.830363 ], [ 6.7786366, 7.8303639 ], [ 6.7786357, 7.8305447 ], [ 6.778817, 7.8305457 ], [ 6.778816, 7.8307264 ], [ 6.7789973, 7.8307274 ], [ 6.7792952, 7.8311626 ], [ 6.7797195, 7.8312735 ], [ 6.7799425, 7.8315345 ], [ 6.7804012, 7.8317414 ], [ 6.7828886, 7.8331817 ], [ 6.7840549, 7.8341889 ], [ 6.784054, 7.8343696 ], [ 6.7842352, 7.8343706 ], [ 6.7842343, 7.8345514 ], [ 6.7844156, 7.8345523 ], [ 6.7845395, 7.8350447 ], [ 6.7851359, 7.83546 ], [ 6.785135, 7.8356408 ], [ 6.7853162, 7.8356417 ], [ 6.7853153, 7.8358225 ], [ 6.7854966, 7.8358235 ], [ 6.7872782, 7.8378219 ], [ 6.7884599, 7.8398507 ], [ 6.7885351, 7.8402551 ], [ 6.7883737, 7.8402548 ], [ 6.7883751, 7.8399966 ], [ 6.7881938, 7.8399956 ], [ 6.7881329, 7.8397749 ], [ 6.7879731, 7.8399326 ], [ 6.7881938, 7.8399956 ], [ 6.7882252, 7.8402545 ], [ 6.780369, 7.8402375 ], [ 6.7804604, 7.8402165 ], [ 6.7800361, 7.8399527 ], [ 6.7799465, 7.8395266 ], [ 6.7796236, 7.8397244 ], [ 6.7800361, 7.8399527 ], [ 6.7800346, 7.8402367 ], [ 6.7797585, 7.8402361 ], [ 6.779751, 7.840234 ], [ 6.7790324, 7.8396968 ], [ 6.7788728, 7.8393022 ], [ 6.7785318, 7.8391429 ], [ 6.7784065, 7.8395825 ], [ 6.7781738, 7.8396717 ], [ 6.7784055, 7.8397633 ], [ 6.778485, 7.8402334 ], [ 6.7760281, 7.840228 ], [ 6.7759685, 7.84001 ], [ 6.7758666, 7.8399307 ], [ 6.7750691, 7.8383798 ], [ 6.7746892, 7.8378555 ], [ 6.7741687, 7.8369258 ], [ 6.7732098, 7.8357187 ], [ 6.7727086, 7.8353141 ], [ 6.77241, 7.8345969 ], [ 6.7720134, 7.8345455 ], [ 6.772434, 7.8356542 ], [ 6.7718022, 7.8353093 ], [ 6.7711802, 7.8348441 ], [ 6.7710597, 7.8346033 ], [ 6.7704594, 7.8342965 ], [ 6.7702184, 7.833815 ], [ 6.7700983, 7.8337537 ], [ 6.7698121, 7.8333167 ], [ 6.7697396, 7.8330286 ], [ 6.7706318, 7.8337151 ], [ 6.7710033, 7.8341499 ], [ 6.7717476, 7.8345692 ], [ 6.7718329, 7.8341847 ], [ 6.7714516, 7.8334947 ], [ 6.7715034, 7.8328924 ], [ 6.769836, 7.8316605 ], [ 6.7696619, 7.8318599 ], [ 6.7690993, 7.8320256 ], [ 6.7693589, 7.8327425 ], [ 6.7689342, 7.8327743 ], [ 6.768919, 7.8325723 ], [ 6.7689362, 7.8323714 ], [ 6.7680315, 7.831657 ], [ 6.767476, 7.831306 ], [ 6.7660152, 7.8299917 ], [ 6.7654892, 7.830031 ], [ 6.7653229, 7.8296541 ], [ 6.7651263, 7.8292982 ], [ 6.7653868, 7.8288383 ], [ 6.7644087, 7.8283968 ], [ 6.7644452, 7.8279722 ], [ 6.7636953, 7.826919 ], [ 6.7632351, 7.8269535 ], [ 6.7622593, 7.8262557 ], [ 6.7625049, 7.8270057 ], [ 6.7640773, 7.8283712 ], [ 6.7640316, 7.8289027 ], [ 6.7642898, 7.8296154 ], [ 6.763871, 7.8299713 ], [ 6.7642246, 7.830024 ], [ 6.7644141, 7.8300098 ], [ 6.7646171, 7.83047 ], [ 6.7657766, 7.8308248 ], [ 6.766456, 7.8316198 ], [ 6.7675229, 7.83203 ], [ 6.7679793, 7.8325639 ], [ 6.7687252, 7.8327922 ], [ 6.7687498, 7.8331196 ], [ 6.768651, 7.8332037 ], [ 6.7684697, 7.8332027 ], [ 6.7684707, 7.8330219 ], [ 6.7681081, 7.83302 ], [ 6.7679268, 7.833019 ], [ 6.7679278, 7.8328383 ], [ 6.7675652, 7.8328363 ], [ 6.767384, 7.8328354 ], [ 6.7673849, 7.8326546 ], [ 6.7670224, 7.8326527 ], [ 6.7668556, 7.8324576 ], [ 6.7659385, 7.8319238 ], [ 6.7657573, 7.8319229 ], [ 6.7657582, 7.8317421 ], [ 6.7650331, 7.8317382 ], [ 6.7649497, 7.8316407 ], [ 6.7640308, 7.8314685 ], [ 6.7631389, 7.8312695 ], [ 6.7622199, 7.8310973 ], [ 6.7616906, 7.8309003 ], [ 6.7593476, 7.8304612 ], [ 6.7583365, 7.8297141 ], [ 6.7582757, 7.8294934 ], [ 6.7581158, 7.8296511 ], [ 6.7583365, 7.8297141 ], [ 6.7584457, 7.8301131 ], [ 6.7588689, 7.830666 ], [ 6.7602209, 7.8310916 ], [ 6.7609685, 7.8312531 ], [ 6.761807, 7.8317636 ], [ 6.7622281, 7.8318279 ], [ 6.7628421, 7.8315909 ], [ 6.7635793, 7.832036 ], [ 6.7634614, 7.8328036 ], [ 6.7637856, 7.8336057 ], [ 6.7641985, 7.833078 ], [ 6.764404, 7.8329216 ], [ 6.7646728, 7.8322766 ], [ 6.7654699, 7.8326068 ], [ 6.7658543, 7.832906 ], [ 6.7661417, 7.8336169 ], [ 6.7662915, 7.8337335 ], [ 6.7663809, 7.8339655 ], [ 6.7664727, 7.8337345 ], [ 6.766956, 7.8336763 ], [ 6.7671988, 7.8335575 ], [ 6.7671979, 7.8337383 ], [ 6.7689072, 7.8358282 ], [ 6.7692552, 7.835823 ], [ 6.7696349, 7.8360091 ], [ 6.7700848, 7.8362845 ], [ 6.7700839, 7.8364653 ], [ 6.7702652, 7.8364662 ], [ 6.7702642, 7.836647 ], [ 6.770808, 7.8366499 ], [ 6.7708051, 7.8371922 ], [ 6.7709864, 7.8371932 ], [ 6.7710467, 7.8373135 ], [ 6.7715283, 7.8375576 ], [ 6.7714658, 7.8378581 ], [ 6.7713442, 7.838099 ], [ 6.7711629, 7.838098 ], [ 6.7710681, 7.8376744 ], [ 6.7707385, 7.8375596 ], [ 6.7709816, 7.838097 ], [ 6.7708003, 7.8380961 ], [ 6.7704378, 7.8380942 ], [ 6.7704359, 7.8384557 ], [ 6.7698939, 7.8380913 ], [ 6.7698949, 7.8379105 ], [ 6.7697136, 7.8379096 ], [ 6.7695323, 7.8379086 ], [ 6.7693007, 7.8374818 ], [ 6.7691098, 7.837856 ], [ 6.7695314, 7.8380894 ], [ 6.7695304, 7.8382701 ], [ 6.7697117, 7.8382711 ], [ 6.7700831, 7.8388136 ], [ 6.7707955, 7.839 ], [ 6.7710814, 7.8393734 ], [ 6.7718, 7.8398071 ], [ 6.7723522, 7.84022 ], [ 6.771167, 7.8402174 ], [ 6.771063, 7.8401746 ], [ 6.7705062, 7.8399912 ], [ 6.7702478, 7.8397202 ], [ 6.7704692, 7.8396595 ], [ 6.7703111, 7.8395001 ], [ 6.7702478, 7.8397202 ] ], [ [ 6.7687954, 7.8374242 ], [ 6.7686308, 7.8369999 ], [ 6.7683694, 7.8371989 ], [ 6.7687954, 7.8374242 ] ], [ [ 6.7705626, 7.8370498 ], [ 6.7706258, 7.8368297 ], [ 6.7704044, 7.8368904 ], [ 6.7705626, 7.8370498 ] ], [ [ 6.7680869, 7.836997 ], [ 6.7678656, 7.8370577 ], [ 6.7680237, 7.8372171 ], [ 6.7680869, 7.836997 ] ], [ [ 6.7530708, 7.8313131 ], [ 6.7532228, 7.8332515 ], [ 6.7540319, 7.8341982 ], [ 6.755691, 7.8354923 ], [ 6.7556417, 7.8360656 ], [ 6.7558481, 7.836307 ], [ 6.7564917, 7.8362589 ], [ 6.7571278, 7.8366609 ], [ 6.7579075, 7.8372185 ], [ 6.7585596, 7.8375859 ], [ 6.7589347, 7.8377552 ], [ 6.7595396, 7.838096 ], [ 6.7603515, 7.8381654 ], [ 6.7603979, 7.8376254 ], [ 6.7600389, 7.8372053 ], [ 6.7597481, 7.8369528 ], [ 6.7596282, 7.8367777 ], [ 6.7574945, 7.8357441 ], [ 6.7572989, 7.8357867 ], [ 6.7567116, 7.8354009 ], [ 6.7561312, 7.8353065 ], [ 6.7558373, 7.8348772 ], [ 6.75541, 7.8345796 ], [ 6.755411, 7.8343988 ], [ 6.7550484, 7.8343968 ], [ 6.754966, 7.8341185 ], [ 6.7542302, 7.8335857 ], [ 6.7536587, 7.8316552 ], [ 6.7530708, 7.8313131 ], [ 6.7533156, 7.8308285 ], [ 6.7528312, 7.8308316 ], [ 6.7529508, 7.8312517 ], [ 6.7530708, 7.8313131 ] ], [ [ 6.7528818, 7.8327583 ], [ 6.7526605, 7.832819 ], [ 6.7528186, 7.8329784 ], [ 6.7528818, 7.8327583 ] ], [ [ 6.7512493, 7.8329304 ], [ 6.7508469, 7.8329867 ], [ 6.7511902, 7.8333208 ], [ 6.7512493, 7.8329304 ] ], [ [ 6.7537746, 7.8352939 ], [ 6.7535533, 7.8353547 ], [ 6.7537114, 7.835514 ], [ 6.7537746, 7.8352939 ] ], [ [ 6.7528663, 7.8356507 ], [ 6.7526449, 7.8357114 ], [ 6.752803, 7.8358707 ], [ 6.7528663, 7.8356507 ] ], [ [ 6.7557619, 7.83657 ], [ 6.7553339, 7.836801 ], [ 6.7556727, 7.8369729 ], [ 6.7557619, 7.83657 ] ], [ [ 6.7550329, 7.8372892 ], [ 6.7548115, 7.8373499 ], [ 6.7549697, 7.8375093 ], [ 6.7550329, 7.8372892 ] ], [ [ 6.7568034, 7.8350491 ], [ 6.7569647, 7.8353602 ], [ 6.7570395, 7.8349498 ], [ 6.7568034, 7.8350491 ] ], [ [ 6.7662495, 7.8341567 ], [ 6.7664076, 7.8343161 ], [ 6.7664708, 7.834096 ], [ 6.7662495, 7.8341567 ] ], [ [ 6.7544671, 7.8312403 ], [ 6.7546285, 7.8315514 ], [ 6.7547033, 7.831141 ], [ 6.7544671, 7.8312403 ] ], [ [ 6.7590162, 7.8382143 ], [ 6.7587948, 7.838275 ], [ 6.7589529, 7.8384344 ], [ 6.7590162, 7.8382143 ] ], [ [ 6.7599206, 7.8385807 ], [ 6.7593138, 7.838656 ], [ 6.7597966, 7.8388126 ], [ 6.7599206, 7.8385807 ] ], [ [ 6.7559315, 7.8387402 ], [ 6.7557102, 7.8388009 ], [ 6.7558683, 7.8389603 ], [ 6.7559315, 7.8387402 ] ], [ [ 6.7628163, 7.8395 ], [ 6.7625801, 7.8395993 ], [ 6.7627415, 7.8399104 ], [ 6.7628163, 7.8395 ] ], [ [ 6.7600961, 7.8396663 ], [ 6.7598748, 7.839727 ], [ 6.7600329, 7.8398864 ], [ 6.7600961, 7.8396663 ] ], [ [ 6.7512387, 7.8349189 ], [ 6.7510173, 7.8349796 ], [ 6.7511754, 7.8351389 ], [ 6.7512387, 7.8349189 ] ], [ [ 6.7621452, 7.8293728 ], [ 6.7622183, 7.8299763 ], [ 6.7625264, 7.8295676 ], [ 6.7621452, 7.8293728 ], [ 6.7620039, 7.8285759 ], [ 6.7613442, 7.8285195 ], [ 6.7613125, 7.8288881 ], [ 6.7621452, 7.8293728 ] ], [ [ 6.7632818, 7.8287197 ], [ 6.7636635, 7.8285291 ], [ 6.7631219, 7.8282293 ], [ 6.7630584, 7.8281122 ], [ 6.7626312, 7.8282015 ], [ 6.7632818, 7.8287197 ] ], [ [ 6.7609927, 7.8267337 ], [ 6.7595485, 7.8261448 ], [ 6.7591613, 7.8258434 ], [ 6.7590829, 7.825741 ], [ 6.7582783, 7.8258347 ], [ 6.7588149, 7.8264694 ], [ 6.759829, 7.8267568 ], [ 6.7607527, 7.8279635 ], [ 6.7616871, 7.8281063 ], [ 6.7609927, 7.8267337 ] ], [ [ 6.763041, 7.8265292 ], [ 6.7634485, 7.8266225 ], [ 6.7635749, 7.8260736 ], [ 6.7632531, 7.8255823 ], [ 6.7624535, 7.8256687 ], [ 6.763041, 7.8265292 ] ], [ [ 6.7675184, 7.8258694 ], [ 6.7676852, 7.8260645 ], [ 6.7686022, 7.8265982 ], [ 6.7694922, 7.8271587 ], [ 6.7701468, 7.8275103 ], [ 6.7703994, 7.8270022 ], [ 6.7693721, 7.8256796 ], [ 6.7689334, 7.8257124 ], [ 6.7685286, 7.8252387 ], [ 6.7682113, 7.8245195 ], [ 6.7672441, 7.8250611 ], [ 6.7671547, 7.8248291 ], [ 6.7670628, 7.8250602 ], [ 6.7669343, 7.8249486 ], [ 6.7666207, 7.8242376 ], [ 6.7663977, 7.8240691 ], [ 6.76646, 7.8248972 ], [ 6.766824, 7.8255559 ], [ 6.7675184, 7.8258694 ] ], [ [ 6.7674217, 7.8241817 ], [ 6.7672508, 7.8237957 ], [ 6.7668177, 7.8240587 ], [ 6.7674217, 7.8241817 ] ], [ [ 6.766155, 7.8237079 ], [ 6.7659153, 7.8233152 ], [ 6.7655104, 7.8231752 ], [ 6.7654419, 7.823063 ], [ 6.7648273, 7.8233822 ], [ 6.7650948, 7.824034 ], [ 6.7655859, 7.8237892 ], [ 6.765453, 7.8233557 ], [ 6.7658709, 7.8235636 ], [ 6.7657299, 7.8240803 ], [ 6.7653662, 7.8243011 ], [ 6.7658925, 7.8245331 ], [ 6.766155, 7.8237079 ] ], [ [ 6.7627228, 7.8230486 ], [ 6.7622707, 7.8231923 ], [ 6.7629325, 7.8236704 ], [ 6.7627228, 7.8230486 ] ], [ [ 6.7616458, 7.8210543 ], [ 6.7610441, 7.8212224 ], [ 6.7617037, 7.821755 ], [ 6.7619011, 7.8222857 ], [ 6.7612633, 7.8222032 ], [ 6.7602939, 7.8214891 ], [ 6.7597505, 7.8214135 ], [ 6.7601118, 7.822034 ], [ 6.7600222, 7.8227222 ], [ 6.7602862, 7.8229353 ], [ 6.7604671, 7.823579 ], [ 6.7608774, 7.8238423 ], [ 6.7611761, 7.8234744 ], [ 6.7618001, 7.8238446 ], [ 6.7620808, 7.8225833 ], [ 6.7623041, 7.822013 ], [ 6.7622525, 7.8215803 ], [ 6.7617259, 7.8211551 ], [ 6.7616458, 7.8210543 ], [ 6.7622282, 7.8207669 ], [ 6.7617726, 7.8198503 ], [ 6.7616525, 7.8197889 ], [ 6.7616535, 7.8196081 ], [ 6.7616554, 7.8192466 ], [ 6.7614742, 7.8192456 ], [ 6.7614751, 7.8190649 ], [ 6.7612939, 7.8190639 ], [ 6.7610685, 7.8183222 ], [ 6.7598263, 7.8165339 ], [ 6.7594035, 7.8160569 ], [ 6.7591859, 7.8169676 ], [ 6.7588649, 7.8166054 ], [ 6.7587696, 7.8165196 ], [ 6.7585918, 7.8161582 ], [ 6.7588201, 7.8156982 ], [ 6.7584119, 7.8156138 ], [ 6.7580222, 7.815205 ], [ 6.756344, 7.8143315 ], [ 6.7567833, 7.8150628 ], [ 6.7565472, 7.8151621 ], [ 6.7567085, 7.8154732 ], [ 6.7567833, 7.8150628 ], [ 6.757222, 7.815417 ], [ 6.758113, 7.8168977 ], [ 6.7586827, 7.8176842 ], [ 6.7587619, 7.8179658 ], [ 6.7581789, 7.8178197 ], [ 6.7579598, 7.818512 ], [ 6.7587803, 7.8187628 ], [ 6.7589422, 7.8181475 ], [ 6.7592543, 7.818236 ], [ 6.7591549, 7.8188832 ], [ 6.7599467, 7.8194994 ], [ 6.7598704, 7.8199965 ], [ 6.7602789, 7.8202452 ], [ 6.760562, 7.8203255 ], [ 6.7606739, 7.8206272 ], [ 6.7601165, 7.8205675 ], [ 6.7599336, 7.8207592 ], [ 6.7608826, 7.8211323 ], [ 6.7614678, 7.8204373 ], [ 6.7616458, 7.8210543 ] ], [ [ 6.7498496, 7.8235225 ], [ 6.7496282, 7.8235832 ], [ 6.7497864, 7.8237425 ], [ 6.7498496, 7.8235225 ] ], [ [ 6.7622818, 7.8238811 ], [ 6.7624669, 7.8245673 ], [ 6.7628358, 7.8242572 ], [ 6.762719, 7.8237717 ], [ 6.7622818, 7.8238811 ] ], [ [ 6.7612678, 7.8239448 ], [ 6.760824, 7.8240688 ], [ 6.7611414, 7.8243769 ], [ 6.7612678, 7.8239448 ] ], [ [ 6.770139, 7.8186303 ], [ 6.7702971, 7.8187896 ], [ 6.7703603, 7.8185695 ], [ 6.770139, 7.8186303 ] ], [ [ 6.7783277, 7.8202386 ], [ 6.7786059, 7.8203237 ], [ 6.7788384, 7.8208507 ], [ 6.7809567, 7.8214208 ], [ 6.7814855, 7.8217186 ], [ 6.7813078, 7.8212059 ], [ 6.7808491, 7.8208076 ], [ 6.780579, 7.8204916 ], [ 6.7789404, 7.8191254 ], [ 6.7784187, 7.8188899 ], [ 6.7781083, 7.8185267 ], [ 6.7771509, 7.818689 ], [ 6.7769693, 7.8188969 ], [ 6.7764913, 7.818856 ], [ 6.7757966, 7.8189598 ], [ 6.7756153, 7.8189588 ], [ 6.7755259, 7.8187268 ], [ 6.775434, 7.8189579 ], [ 6.7754331, 7.8191386 ], [ 6.7756143, 7.8191396 ], [ 6.7756134, 7.8193204 ], [ 6.7757947, 7.8193213 ], [ 6.7758582, 7.8194384 ], [ 6.776273, 7.8195686 ], [ 6.7767463, 7.8199295 ], [ 6.776955, 7.8195545 ], [ 6.7773374, 7.819714 ], [ 6.7774232, 7.8198723 ], [ 6.7772019, 7.819933 ], [ 6.77736, 7.8200923 ], [ 6.7774232, 7.8198723 ], [ 6.7776648, 7.8199936 ], [ 6.7782674, 7.8201182 ], [ 6.7783277, 7.8202386 ], [ 6.7780664, 7.8204375 ], [ 6.7784924, 7.8206628 ], [ 6.7783277, 7.8202386 ] ], [ [ 6.7910823, 7.8187497 ], [ 6.7912087, 7.8183176 ], [ 6.7907648, 7.8184416 ], [ 6.7910823, 7.8187497 ] ], [ [ 6.7931706, 7.8156899 ], [ 6.7935132, 7.8155408 ], [ 6.793401, 7.815075 ], [ 6.7929639, 7.8151844 ], [ 6.7931706, 7.8156899 ] ], [ [ 6.7795287, 7.8146803 ], [ 6.7792989, 7.8123979 ], [ 6.7788331, 7.8116474 ], [ 6.7787361, 7.8115632 ], [ 6.7786504, 7.8112882 ], [ 6.7779232, 7.8103873 ], [ 6.7765498, 7.8086267 ], [ 6.7749515, 7.8073854 ], [ 6.7749524, 7.8072046 ], [ 6.7747712, 7.8072036 ], [ 6.7747721, 7.8070229 ], [ 6.7744096, 7.807021 ], [ 6.7744106, 7.8068402 ], [ 6.7744115, 7.8066594 ], [ 6.7742302, 7.8066585 ], [ 6.7742312, 7.8064777 ], [ 6.7740499, 7.8064767 ], [ 6.7740509, 7.806296 ], [ 6.7738696, 7.806295 ], [ 6.7736884, 7.806294 ], [ 6.7735076, 7.8059329 ], [ 6.7731474, 7.8057489 ], [ 6.7731484, 7.8055681 ], [ 6.7729671, 7.8055671 ], [ 6.772545, 7.8050733 ], [ 6.7708025, 7.8035671 ], [ 6.7703693, 7.8029156 ], [ 6.7701557, 7.8027668 ], [ 6.7696943, 7.8020928 ], [ 6.7689741, 7.8018197 ], [ 6.7685139, 7.8010056 ], [ 6.7681723, 7.8007677 ], [ 6.7680263, 7.8003723 ], [ 6.7679195, 7.8002979 ], [ 6.767847, 7.8000098 ], [ 6.7675608, 7.7995729 ], [ 6.7680013, 7.7994563 ], [ 6.7673404, 7.7984072 ], [ 6.767205, 7.7983055 ], [ 6.7667368, 7.7977577 ], [ 6.765495, 7.7972955 ], [ 6.7644327, 7.7969704 ], [ 6.7642029, 7.7965546 ], [ 6.7642626, 7.7958596 ], [ 6.7640408, 7.7958407 ], [ 6.7636215, 7.7960711 ], [ 6.7617859, 7.7947585 ], [ 6.7614973, 7.795115 ], [ 6.7621724, 7.7954196 ], [ 6.7624617, 7.7963968 ], [ 6.7627654, 7.7967522 ], [ 6.7632691, 7.7971896 ], [ 6.7633311, 7.7980139 ], [ 6.763283, 7.7985736 ], [ 6.7636738, 7.7989129 ], [ 6.7639691, 7.7999104 ], [ 6.7646882, 7.800235 ], [ 6.7649329, 7.8009105 ], [ 6.7649131, 7.8011409 ], [ 6.765443, 7.8026039 ], [ 6.7654653, 7.8028995 ], [ 6.7655487, 7.8029971 ], [ 6.7652424, 7.8030673 ], [ 6.7653986, 7.803577 ], [ 6.7660435, 7.8038 ], [ 6.7657766, 7.8041749 ], [ 6.7663171, 7.8048477 ], [ 6.7657944, 7.8046823 ], [ 6.7656497, 7.8050825 ], [ 6.76608, 7.80535 ], [ 6.766079, 7.8055308 ], [ 6.7661559, 7.8065338 ], [ 6.7663968, 7.8067356 ], [ 6.7659406, 7.8070583 ], [ 6.7655628, 7.806177 ], [ 6.7651945, 7.8066145 ], [ 6.7655949, 7.8073203 ], [ 6.7676271, 7.808212 ], [ 6.7686237, 7.8089354 ], [ 6.7694542, 7.8099432 ], [ 6.7699385, 7.8110733 ], [ 6.7702344, 7.8115949 ], [ 6.7706757, 7.8119644 ], [ 6.7709368, 7.8124261 ], [ 6.7706553, 7.8123442 ], [ 6.7702139, 7.8120823 ], [ 6.7695805, 7.8110298 ], [ 6.7691876, 7.8110765 ], [ 6.7688095, 7.8097308 ], [ 6.767548, 7.8087124 ], [ 6.7658331, 7.8084054 ], [ 6.7654223, 7.8078882 ], [ 6.764978, 7.8080559 ], [ 6.7649789, 7.8078751 ], [ 6.7647976, 7.8078741 ], [ 6.7647986, 7.8076934 ], [ 6.7647996, 7.8075126 ], [ 6.7648005, 7.8073318 ], [ 6.7646193, 7.8073309 ], [ 6.7642567, 7.8073289 ], [ 6.7642558, 7.8075097 ], [ 6.7641812, 7.8076163 ], [ 6.7631662, 7.8078655 ], [ 6.7631672, 7.8076847 ], [ 6.7626234, 7.8076819 ], [ 6.7626224, 7.8078626 ], [ 6.7624412, 7.8078617 ], [ 6.7624402, 7.8080425 ], [ 6.7624393, 7.8082232 ], [ 6.7626205, 7.8082242 ], [ 6.7626176, 7.8087665 ], [ 6.7627989, 7.8087675 ], [ 6.7627979, 7.8089482 ], [ 6.762797, 7.809129 ], [ 6.7624354, 7.8089463 ], [ 6.7624364, 7.8087655 ], [ 6.7622551, 7.8087646 ], [ 6.7622561, 7.8085838 ], [ 6.762257, 7.808403 ], [ 6.7620758, 7.8084021 ], [ 6.7619864, 7.8081701 ], [ 6.7618945, 7.8084011 ], [ 6.7617132, 7.8084002 ], [ 6.7615527, 7.808198 ], [ 6.760899, 7.8081134 ], [ 6.760627, 7.8081457 ], [ 6.7601841, 7.8080884 ], [ 6.7603926, 7.8086192 ], [ 6.7609601, 7.8088613 ], [ 6.7618058, 7.8099273 ], [ 6.7623256, 7.8106731 ], [ 6.7624258, 7.8107541 ], [ 6.7626849, 7.8111326 ], [ 6.7633292, 7.8113012 ], [ 6.7633283, 7.811482 ], [ 6.7636908, 7.8114839 ], [ 6.7636898, 7.8116646 ], [ 6.7640524, 7.8116666 ], [ 6.7641325, 7.8117674 ], [ 6.7645334, 7.8120911 ], [ 6.7649526, 7.8126189 ], [ 6.7659595, 7.8128417 ], [ 6.7662581, 7.813559 ], [ 6.7665799, 7.8136006 ], [ 6.767158, 7.813532 ], [ 6.767842, 7.8139379 ], [ 6.7686718, 7.8141215 ], [ 6.7688964, 7.8144043 ], [ 6.7695698, 7.8148038 ], [ 6.7702902, 7.814897 ], [ 6.7719972, 7.8146933 ], [ 6.7730019, 7.8142772 ], [ 6.7731053, 7.813703 ], [ 6.7732022, 7.8137871 ], [ 6.7735228, 7.8141622 ], [ 6.7764138, 7.8143545 ], [ 6.7780517, 7.8146123 ], [ 6.7792174, 7.8154458 ], [ 6.7795287, 7.8146803 ] ], [ [ 6.7937731, 7.8132691 ], [ 6.7939167, 7.8138236 ], [ 6.7958379, 7.8142166 ], [ 6.7956111, 7.8137324 ], [ 6.7945724, 7.8135593 ], [ 6.7940596, 7.813346 ], [ 6.7937731, 7.8132691 ], [ 6.7937122, 7.8130483 ], [ 6.7935524, 7.813206 ], [ 6.7937731, 7.8132691 ] ], [ [ 6.7890883, 7.8134577 ], [ 6.7894381, 7.8125642 ], [ 6.7889913, 7.8109743 ], [ 6.7888911, 7.8108934 ], [ 6.788893, 7.8105318 ], [ 6.7888949, 7.8101703 ], [ 6.7887136, 7.8101693 ], [ 6.7882114, 7.8092899 ], [ 6.786689, 7.8080206 ], [ 6.7860079, 7.8076242 ], [ 6.7860089, 7.8074434 ], [ 6.7858276, 7.8074425 ], [ 6.7858285, 7.8072617 ], [ 6.7856473, 7.8072608 ], [ 6.7855633, 7.8071381 ], [ 6.7850319, 7.806789 ], [ 6.7844339, 7.8065623 ], [ 6.7838403, 7.8061666 ], [ 6.7837505, 7.8059344 ], [ 6.7834366, 7.8060774 ], [ 6.783659, 7.8061657 ], [ 6.7836581, 7.8063464 ], [ 6.7835166, 7.8064542 ], [ 6.7839966, 7.8076417 ], [ 6.7841943, 7.8077955 ], [ 6.7841933, 7.8079763 ], [ 6.7843746, 7.8079772 ], [ 6.7844535, 7.808378 ], [ 6.7847343, 7.8085214 ], [ 6.7850707, 7.8097187 ], [ 6.7853697, 7.8102322 ], [ 6.7856293, 7.811156 ], [ 6.7868439, 7.8131894 ], [ 6.7881075, 7.8136814 ], [ 6.7890883, 7.8134577 ] ], [ [ 6.791259, 7.8087364 ], [ 6.7910264, 7.8088256 ], [ 6.7912581, 7.8089172 ], [ 6.7916882, 7.8097164 ], [ 6.792238, 7.8090205 ], [ 6.7919926, 7.8083708 ], [ 6.7913914, 7.8082331 ], [ 6.791259, 7.8087364 ] ], [ [ 6.7928914, 7.8085641 ], [ 6.7928299, 7.8086839 ], [ 6.7924664, 7.8088649 ], [ 6.7927865, 7.8093397 ], [ 6.7934939, 7.8089874 ], [ 6.793374, 7.8086274 ], [ 6.7928914, 7.8085641 ], [ 6.7926597, 7.8081373 ], [ 6.7924874, 7.8084752 ], [ 6.7928914, 7.8085641 ] ], [ [ 6.790719, 7.8080104 ], [ 6.7904829, 7.8081097 ], [ 6.7906443, 7.8084209 ], [ 6.790719, 7.8080104 ] ], [ [ 6.7646359, 7.7967269 ], [ 6.764794, 7.7968862 ], [ 6.7648572, 7.7966661 ], [ 6.7646359, 7.7967269 ] ], [ [ 6.7658825, 7.7967112 ], [ 6.7659457, 7.7964911 ], [ 6.7657244, 7.7965518 ], [ 6.7658825, 7.7967112 ] ], [ [ 6.7610622, 7.7944767 ], [ 6.7606184, 7.7946008 ], [ 6.7609359, 7.7949088 ], [ 6.7610622, 7.7944767 ] ], [ [ 6.7594319, 7.7942873 ], [ 6.7592105, 7.794348 ], [ 6.7593686, 7.7945074 ], [ 6.7594319, 7.7942873 ] ], [ [ 6.7587068, 7.7942835 ], [ 6.7582796, 7.7943728 ], [ 6.7584779, 7.7946948 ], [ 6.7587068, 7.7942835 ] ], [ [ 6.7644687, 7.8015451 ], [ 6.7638313, 7.8014548 ], [ 6.7628077, 7.8003412 ], [ 6.7621417, 7.800364 ], [ 6.7611309, 7.7992643 ], [ 6.7609436, 7.7990894 ], [ 6.7605909, 7.7985383 ], [ 6.7604037, 7.7983634 ], [ 6.7602303, 7.7981749 ], [ 6.7599438, 7.7979072 ], [ 6.7574641, 7.7951829 ], [ 6.7566014, 7.7943771 ], [ 6.7558086, 7.7939066 ], [ 6.7555613, 7.7936376 ], [ 6.7554346, 7.7944366 ], [ 6.7569013, 7.7984723 ], [ 6.7570524, 7.7986134 ], [ 6.7570514, 7.7987942 ], [ 6.7571322, 7.7990741 ], [ 6.7574294, 7.7995982 ], [ 6.7582163, 7.8014514 ], [ 6.7595737, 7.8017 ], [ 6.7595727, 7.8018808 ], [ 6.7592102, 7.8018789 ], [ 6.7592092, 7.8020596 ], [ 6.7589358, 7.8021559 ], [ 6.7584021, 7.801863 ], [ 6.7589455, 7.8033988 ], [ 6.7594418, 7.8050324 ], [ 6.7595554, 7.8051347 ], [ 6.7595534, 7.8054963 ], [ 6.7597347, 7.8054972 ], [ 6.7598053, 7.8061469 ], [ 6.760018, 7.8064764 ], [ 6.7601989, 7.8069665 ], [ 6.7608861, 7.807418 ], [ 6.761718, 7.8074963 ], [ 6.7617171, 7.8076771 ], [ 6.7622609, 7.8076799 ], [ 6.7622618, 7.8074992 ], [ 6.7624431, 7.8075001 ], [ 6.7633297, 7.8073943 ], [ 6.7635326, 7.8071443 ], [ 6.7638952, 7.8071463 ], [ 6.7642577, 7.8071482 ], [ 6.7642587, 7.8069674 ], [ 6.7644399, 7.8069684 ], [ 6.7648025, 7.8069703 ], [ 6.7648034, 7.8067895 ], [ 6.7649847, 7.8067905 ], [ 6.7649866, 7.8064289 ], [ 6.7651679, 7.8064299 ], [ 6.7651698, 7.8060683 ], [ 6.7651708, 7.8058875 ], [ 6.7653363, 7.8057568 ], [ 6.7651012, 7.8037982 ], [ 6.765001, 7.8037173 ], [ 6.7650029, 7.8033557 ], [ 6.7648217, 7.8033548 ], [ 6.7648226, 7.803174 ], [ 6.7646414, 7.8031731 ], [ 6.7646423, 7.8029923 ], [ 6.7644611, 7.8029913 ], [ 6.764462, 7.8028106 ], [ 6.7642808, 7.8028096 ], [ 6.7641602, 7.8025689 ], [ 6.7639202, 7.8024461 ], [ 6.7639211, 7.8022654 ], [ 6.7637398, 7.8022644 ], [ 6.7637408, 7.8020836 ], [ 6.7640289, 7.802159 ], [ 6.7648611, 7.8027057 ], [ 6.7650524, 7.8023145 ], [ 6.7643492, 7.8018248 ], [ 6.7644687, 7.8015451 ], [ 6.7646901, 7.8014844 ], [ 6.764532, 7.8013251 ], [ 6.7644687, 7.8015451 ] ], [ [ 6.759884, 7.7972975 ], [ 6.7604983, 7.797617 ], [ 6.7603228, 7.7971845 ], [ 6.759884, 7.7972975 ] ], [ [ 6.7617873, 7.7944806 ], [ 6.7623311, 7.7944834 ], [ 6.762333, 7.7941219 ], [ 6.7617892, 7.794119 ], [ 6.7617873, 7.7944806 ] ], [ [ 6.7589035, 7.7913921 ], [ 6.7588174, 7.7914871 ], [ 6.7584668, 7.7917962 ], [ 6.7581052, 7.7931146 ], [ 6.7585268, 7.7940437 ], [ 6.7592521, 7.7940044 ], [ 6.7598793, 7.7940451 ], [ 6.7598993, 7.7937378 ], [ 6.7591767, 7.7934024 ], [ 6.7591506, 7.7929236 ], [ 6.759892, 7.7929716 ], [ 6.7606214, 7.7929322 ], [ 6.7611717, 7.7932342 ], [ 6.7626057, 7.7934962 ], [ 6.7627895, 7.7934862 ], [ 6.7638678, 7.793556 ], [ 6.7638834, 7.7933166 ], [ 6.7638736, 7.7931358 ], [ 6.7638855, 7.7929531 ], [ 6.7636164, 7.7908501 ], [ 6.7638921, 7.789696 ], [ 6.7641579, 7.7889695 ], [ 6.7637651, 7.7889907 ], [ 6.7639273, 7.7864995 ], [ 6.7633164, 7.7848891 ], [ 6.7625349, 7.7844602 ], [ 6.7620331, 7.7844277 ], [ 6.7622007, 7.7849015 ], [ 6.7618382, 7.7848996 ], [ 6.7616569, 7.7848986 ], [ 6.7614757, 7.7848976 ], [ 6.7614728, 7.78544 ], [ 6.761654, 7.7854409 ], [ 6.7618353, 7.7854419 ], [ 6.7621147, 7.7858893 ], [ 6.762094, 7.7860818 ], [ 6.762293, 7.7864327 ], [ 6.7622591, 7.7867482 ], [ 6.7616969, 7.7869694 ], [ 6.7612405, 7.7859046 ], [ 6.7609591, 7.7857168 ], [ 6.7612247, 7.786684 ], [ 6.7609727, 7.7880039 ], [ 6.7610136, 7.7884262 ], [ 6.7606699, 7.7890175 ], [ 6.7604556, 7.7887574 ], [ 6.7602544, 7.7892135 ], [ 6.7602822, 7.7895012 ], [ 6.7601079, 7.7911221 ], [ 6.7598925, 7.7912986 ], [ 6.7597227, 7.7916836 ], [ 6.7593646, 7.7914765 ], [ 6.7589035, 7.7913921 ], [ 6.7591672, 7.7907333 ], [ 6.758314, 7.7907474 ], [ 6.7582329, 7.7912748 ], [ 6.7589035, 7.7913921 ] ], [ [ 6.7554586, 7.7915546 ], [ 6.7548469, 7.7916377 ], [ 6.755359, 7.7919784 ], [ 6.7554586, 7.7915546 ] ], [ [ 6.756901, 7.7930085 ], [ 6.7565339, 7.7931004 ], [ 6.7568064, 7.7934986 ], [ 6.7578774, 7.793744 ], [ 6.7576107, 7.7932056 ], [ 6.7571105, 7.7933146 ], [ 6.756901, 7.7930085 ] ], [ [ 6.763955, 7.7884074 ], [ 6.7641131, 7.7885668 ], [ 6.7641763, 7.7883467 ], [ 6.763955, 7.7884074 ] ], [ [ 6.763945, 7.7875421 ], [ 6.7641063, 7.7878533 ], [ 6.7641811, 7.7874428 ], [ 6.763945, 7.7875421 ] ], [ [ 6.7601289, 7.784793 ], [ 6.759747, 7.7842658 ], [ 6.7596727, 7.7830803 ], [ 6.7593192, 7.7831791 ], [ 6.7591379, 7.7845725 ], [ 6.7595228, 7.787312 ], [ 6.760085, 7.7873848 ], [ 6.7601508, 7.7868792 ], [ 6.7600968, 7.786427 ], [ 6.7601203, 7.7862463 ], [ 6.760034, 7.7855227 ], [ 6.7601289, 7.784793 ] ], [ [ 6.7599894, 7.7842286 ], [ 6.7601475, 7.7843879 ], [ 6.7602107, 7.7841678 ], [ 6.7599894, 7.7842286 ] ], [ [ 6.7617113, 7.7842578 ], [ 6.7628317, 7.7839536 ], [ 6.7626723, 7.7829974 ], [ 6.7625737, 7.7829149 ], [ 6.7625757, 7.7825533 ], [ 6.7623944, 7.7825524 ], [ 6.7623127, 7.7824532 ], [ 6.761881, 7.7820917 ], [ 6.7614141, 7.7810022 ], [ 6.7610376, 7.7804746 ], [ 6.760877, 7.7797339 ], [ 6.7606808, 7.779388 ], [ 6.7603675, 7.7783017 ], [ 6.7601057, 7.7784908 ], [ 6.7599448, 7.7799866 ], [ 6.7606856, 7.7819057 ], [ 6.760647, 7.7822649 ], [ 6.7609749, 7.7825395 ], [ 6.7617113, 7.7842578 ] ], [ [ 6.7556553, 7.7886632 ], [ 6.7558458, 7.7888348 ], [ 6.7565198, 7.7895952 ], [ 6.757764, 7.7905675 ], [ 6.7586842, 7.7902677 ], [ 6.7593641, 7.7890356 ], [ 6.7591831, 7.7875414 ], [ 6.758837, 7.7858831 ], [ 6.7585993, 7.7823414 ], [ 6.7579628, 7.7817681 ], [ 6.7581409, 7.7804458 ], [ 6.7585183, 7.7795541 ], [ 6.7589141, 7.7785434 ], [ 6.759252, 7.777931 ], [ 6.759339, 7.7776552 ], [ 6.7595716, 7.777566 ], [ 6.7593399, 7.7774744 ], [ 6.7593419, 7.7771129 ], [ 6.7591606, 7.7771119 ], [ 6.7591625, 7.7767504 ], [ 6.7591645, 7.7763888 ], [ 6.7589832, 7.7763879 ], [ 6.7587234, 7.7753855 ], [ 6.7584341, 7.7748618 ], [ 6.7581854, 7.774298 ], [ 6.7579925, 7.7739488 ], [ 6.7576609, 7.7731971 ], [ 6.7563529, 7.7710821 ], [ 6.7556602, 7.7694171 ], [ 6.7551397, 7.7675931 ], [ 6.7547396, 7.7664884 ], [ 6.7544177, 7.7643441 ], [ 6.7544484, 7.7639864 ], [ 6.754337, 7.7638896 ], [ 6.7543389, 7.7635281 ], [ 6.7545715, 7.7634389 ], [ 6.7543398, 7.7633473 ], [ 6.7543427, 7.762805 ], [ 6.7543437, 7.7626242 ], [ 6.754278, 7.7617753 ], [ 6.7539223, 7.7607023 ], [ 6.7538105, 7.7606328 ], [ 6.7536993, 7.7600062 ], [ 6.7533948, 7.7606433 ], [ 6.7530569, 7.7637822 ], [ 6.7525584, 7.7663275 ], [ 6.7527728, 7.7670517 ], [ 6.7530182, 7.7677294 ], [ 6.7527533, 7.7679546 ], [ 6.7527801, 7.7683104 ], [ 6.7527568, 7.7685815 ], [ 6.7528031, 7.7691969 ], [ 6.7526769, 7.7693042 ], [ 6.752279, 7.7688552 ], [ 6.7524634, 7.7714732 ], [ 6.7526644, 7.7716542 ], [ 6.7526634, 7.771835 ], [ 6.7528033, 7.773278 ], [ 6.7530173, 7.7734639 ], [ 6.7530163, 7.7736446 ], [ 6.7530144, 7.7740062 ], [ 6.7528904, 7.7741041 ], [ 6.7530298, 7.7752717 ], [ 6.752831, 7.7767991 ], [ 6.7536713, 7.7774775 ], [ 6.7535684, 7.7782679 ], [ 6.7537954, 7.7788133 ], [ 6.7540216, 7.7787865 ], [ 6.7539582, 7.7792742 ], [ 6.7542058, 7.7810364 ], [ 6.7546091, 7.7808842 ], [ 6.75467, 7.7811049 ], [ 6.7548298, 7.7809472 ], [ 6.7546091, 7.7808842 ], [ 6.7547086, 7.7807616 ], [ 6.7551389, 7.7808173 ], [ 6.7550379, 7.7815938 ], [ 6.7558874, 7.7821145 ], [ 6.7563112, 7.7827336 ], [ 6.7557662, 7.7829593 ], [ 6.7553618, 7.7831935 ], [ 6.7554397, 7.7838464 ], [ 6.755156, 7.7843219 ], [ 6.7555, 7.7849126 ], [ 6.7551536, 7.7851254 ], [ 6.7546828, 7.7834495 ], [ 6.7546033, 7.7819688 ], [ 6.7546043, 7.7817881 ], [ 6.7546053, 7.7816073 ], [ 6.7546062, 7.7814265 ], [ 6.7543794, 7.7811612 ], [ 6.7542427, 7.7816054 ], [ 6.7542418, 7.7817861 ], [ 6.7540472, 7.7819516 ], [ 6.7541503, 7.7833223 ], [ 6.7541261, 7.7836031 ], [ 6.7543606, 7.7861188 ], [ 6.7549113, 7.7876392 ], [ 6.7556553, 7.7886632 ], [ 6.7554339, 7.7887239 ], [ 6.755592, 7.7888833 ], [ 6.7556553, 7.7886632 ] ], [ [ 6.7552068, 7.7903852 ], [ 6.7551047, 7.7899257 ], [ 6.7541172, 7.7900436 ], [ 6.7545223, 7.7909069 ], [ 6.7552068, 7.7903852 ] ], [ [ 6.7597272, 7.7909113 ], [ 6.7598155, 7.7903122 ], [ 6.759385, 7.790408 ], [ 6.7597272, 7.7909113 ] ], [ [ 6.7601783, 7.7827833 ], [ 6.7603364, 7.7829427 ], [ 6.7603996, 7.7827226 ], [ 6.7601783, 7.7827833 ] ], [ [ 6.7587331, 7.7818718 ], [ 6.7588912, 7.7820312 ], [ 6.7589544, 7.7818111 ], [ 6.7587331, 7.7818718 ] ], [ [ 6.7586821, 7.7806278 ], [ 6.7585123, 7.781002 ], [ 6.7581481, 7.7813115 ], [ 6.7588283, 7.7815184 ], [ 6.7589611, 7.7805457 ], [ 6.7586821, 7.7806278 ] ], [ [ 6.7471914, 7.7594127 ], [ 6.747511, 7.7588769 ], [ 6.747612, 7.758101 ], [ 6.7474061, 7.756883 ], [ 6.7471275, 7.7562588 ], [ 6.746905, 7.7564346 ], [ 6.746653, 7.7581538 ], [ 6.7466962, 7.7585162 ], [ 6.7465109, 7.7599405 ], [ 6.7470153, 7.7605757 ], [ 6.7471914, 7.7594127 ] ], [ [ 6.7470987, 7.761682 ], [ 6.7466682, 7.7617777 ], [ 6.7470103, 7.762281 ], [ 6.7470987, 7.761682 ] ], [ [ 6.7504517, 7.7699278 ], [ 6.7501114, 7.7699191 ], [ 6.7498585, 7.7706433 ], [ 6.7496761, 7.7715498 ], [ 6.748753, 7.7750642 ], [ 6.7487162, 7.7764914 ], [ 6.7489166, 7.7773307 ], [ 6.7490976, 7.7780511 ], [ 6.7493773, 7.7804394 ], [ 6.7497945, 7.7813088 ], [ 6.7501687, 7.7811336 ], [ 6.7502619, 7.7803188 ], [ 6.7502629, 7.7801381 ], [ 6.7504441, 7.780139 ], [ 6.7504461, 7.7797775 ], [ 6.7506351, 7.7796046 ], [ 6.7508982, 7.7793245 ], [ 6.7512876, 7.7789684 ], [ 6.7511874, 7.7767082 ], [ 6.7511884, 7.7765274 ], [ 6.7510847, 7.7731843 ], [ 6.7507494, 7.7735404 ], [ 6.7504219, 7.774529 ], [ 6.7502063, 7.7740799 ], [ 6.749848, 7.773377 ], [ 6.7498436, 7.7730855 ], [ 6.7498506, 7.7728144 ], [ 6.7498453, 7.7724659 ], [ 6.7504517, 7.7699278 ] ], [ [ 6.7504041, 7.7715995 ], [ 6.7508493, 7.7731761 ], [ 6.751109, 7.7726913 ], [ 6.7508529, 7.7714638 ], [ 6.7504041, 7.7715995 ] ], [ [ 6.7503178, 7.782146 ], [ 6.7500739, 7.7815833 ], [ 6.7495446, 7.7816594 ], [ 6.7501357, 7.7827388 ], [ 6.7503178, 7.782146 ] ], [ [ 6.7577831, 7.801309 ], [ 6.7575827, 7.8011471 ], [ 6.7573832, 7.8008865 ], [ 6.7571543, 7.8013169 ], [ 6.7573995, 7.8015077 ], [ 6.7573956, 7.8022308 ], [ 6.7575769, 7.8022318 ], [ 6.7575759, 7.8024125 ], [ 6.7576958, 7.8031398 ], [ 6.7583617, 7.8049903 ], [ 6.7589452, 7.8057526 ], [ 6.7591183, 7.8052192 ], [ 6.7589374, 7.8041222 ], [ 6.7585824, 7.8041726 ], [ 6.7585513, 7.8039543 ], [ 6.7585947, 7.8036717 ], [ 6.7582187, 7.803037 ], [ 6.7581168, 7.8029577 ], [ 6.7581187, 7.8025962 ], [ 6.7579375, 7.8025952 ], [ 6.7577831, 7.801309 ] ], [ [ 6.7598348, 7.806837 ], [ 6.7595486, 7.8064001 ], [ 6.7592924, 7.8065746 ], [ 6.7599589, 7.8071993 ], [ 6.7598348, 7.806837 ] ], [ [ 6.7654961, 7.8054088 ], [ 6.7656542, 7.8055682 ], [ 6.7657174, 7.8053481 ], [ 6.7654961, 7.8054088 ] ], [ [ 6.7597203, 7.8082088 ], [ 6.7594607, 7.8083993 ], [ 6.7599584, 7.8088088 ], [ 6.7597203, 7.8082088 ] ], [ [ 6.7612626, 7.8101035 ], [ 6.7608011, 7.80948 ], [ 6.7605398, 7.8096789 ], [ 6.7614143, 7.8104659 ], [ 6.7612626, 7.8101035 ] ], [ [ 6.7644111, 7.8123916 ], [ 6.7639673, 7.8125156 ], [ 6.7642847, 7.8128237 ], [ 6.7644111, 7.8123916 ] ], [ [ 6.7647698, 7.8131166 ], [ 6.7639602, 7.8132179 ], [ 6.7651644, 7.8144678 ], [ 6.7654734, 7.8142542 ], [ 6.7647698, 7.8131166 ] ], [ [ 6.7562444, 7.8141561 ], [ 6.756023, 7.8142168 ], [ 6.7561811, 7.8143761 ], [ 6.7562444, 7.8141561 ] ], [ [ 6.7574823, 7.8199475 ], [ 6.757261, 7.8200083 ], [ 6.7574191, 7.8201676 ], [ 6.7574823, 7.8199475 ] ], [ [ 6.7582045, 7.8204937 ], [ 6.7579832, 7.8205544 ], [ 6.7581413, 7.8207138 ], [ 6.7582045, 7.8204937 ] ], [ [ 6.7520403, 7.8206417 ], [ 6.751819, 7.8207024 ], [ 6.7519771, 7.8208618 ], [ 6.7520403, 7.8206417 ] ], [ [ 6.7589045, 7.8251977 ], [ 6.7586054, 7.8247607 ], [ 6.7582878, 7.8250363 ], [ 6.7589045, 7.8251977 ], [ 6.7589654, 7.8254184 ], [ 6.7591252, 7.8252607 ], [ 6.7589045, 7.8251977 ] ], [ [ 6.7623086, 7.8252776 ], [ 6.7624668, 7.825437 ], [ 6.76253, 7.8252169 ], [ 6.7623086, 7.8252776 ] ], [ [ 6.7572595, 7.8277198 ], [ 6.757139, 7.8274791 ], [ 6.7568989, 7.8273564 ], [ 6.7568999, 7.8271756 ], [ 6.7567186, 7.8271746 ], [ 6.756466, 7.8267444 ], [ 6.7563091, 7.82726 ], [ 6.7567176, 7.8273554 ], [ 6.7567157, 7.8277169 ], [ 6.7572595, 7.8277198 ], [ 6.7574088, 7.8286254 ], [ 6.7580567, 7.8290198 ], [ 6.7578338, 7.8280445 ], [ 6.7572595, 7.8277198 ] ], [ [ 6.802292, 7.8134943 ], [ 6.8020706, 7.813555 ], [ 6.8022288, 7.8137144 ], [ 6.802292, 7.8134943 ] ], [ [ 6.8030076, 7.8153058 ], [ 6.8027863, 7.8153666 ], [ 6.8029444, 7.8155259 ], [ 6.8030076, 7.8153058 ] ], [ [ 6.7661429, 7.8275862 ], [ 6.7657405, 7.8276425 ], [ 6.7660838, 7.8279766 ], [ 6.7661429, 7.8275862 ] ], [ [ 6.7688746, 7.8303268 ], [ 6.7682292, 7.8294838 ], [ 6.7678442, 7.8293243 ], [ 6.7677667, 7.829041 ], [ 6.7673246, 7.8291613 ], [ 6.7676073, 7.8297804 ], [ 6.7685768, 7.8305703 ], [ 6.7688746, 7.8303268 ] ], [ [ 6.7795277, 7.8332611 ], [ 6.7792286, 7.8328241 ], [ 6.7789109, 7.8330998 ], [ 6.7795277, 7.8332611 ], [ 6.7795267, 7.8334419 ], [ 6.779708, 7.8334428 ], [ 6.7797689, 7.8336636 ], [ 6.7799287, 7.8335059 ], [ 6.779708, 7.8334428 ], [ 6.779709, 7.8332621 ], [ 6.7795277, 7.8332611 ] ], [ [ 6.7760824, 7.8334237 ], [ 6.7757438, 7.8335234 ], [ 6.7760942, 7.8343177 ], [ 6.7769507, 7.8353198 ], [ 6.7768454, 7.8346125 ], [ 6.7760824, 7.8334237 ] ], [ [ 6.7821088, 7.8351044 ], [ 6.7830536, 7.8362558 ], [ 6.7833734, 7.8369807 ], [ 6.783763, 7.8366879 ], [ 6.7835965, 7.8364395 ], [ 6.7834996, 7.8363553 ], [ 6.7835006, 7.8361745 ], [ 6.7828741, 7.835009 ], [ 6.7818467, 7.8342743 ], [ 6.7821088, 7.8351044 ] ], [ [ 6.7815084, 7.8358025 ], [ 6.781287, 7.8358632 ], [ 6.7814452, 7.8360226 ], [ 6.7815084, 7.8358025 ] ], [ [ 6.7771538, 7.8365026 ], [ 6.7769418, 7.8360792 ], [ 6.7765504, 7.8362537 ], [ 6.7768189, 7.8366664 ], [ 6.7771538, 7.8365026 ], [ 6.7771528, 7.8366834 ], [ 6.7773341, 7.8366844 ], [ 6.7773332, 7.8368652 ], [ 6.7775144, 7.8368661 ], [ 6.7775753, 7.8370868 ], [ 6.7777351, 7.8369292 ], [ 6.7775144, 7.8368661 ], [ 6.7775154, 7.8366853 ], [ 6.7773341, 7.8366844 ], [ 6.7773351, 7.8365036 ], [ 6.7771538, 7.8365026 ] ], [ [ 6.7769918, 7.8369654 ], [ 6.7771108, 7.8377441 ], [ 6.7777674, 7.8382349 ], [ 6.7780506, 7.8383152 ], [ 6.77814, 7.8385472 ], [ 6.7782319, 7.8383161 ], [ 6.7782329, 7.8381354 ], [ 6.7781138, 7.8374133 ], [ 6.7774111, 7.837513 ], [ 6.7769918, 7.8369654 ] ], [ [ 6.778958, 7.8381392 ], [ 6.7790475, 7.8385652 ], [ 6.7793704, 7.8383675 ], [ 6.778958, 7.8381392 ], [ 6.7788971, 7.8379185 ], [ 6.7787373, 7.8380761 ], [ 6.778958, 7.8381392 ] ], [ [ 6.780248, 7.8341688 ], [ 6.7803089, 7.8343895 ], [ 6.7804687, 7.8342319 ], [ 6.780248, 7.8341688 ], [ 6.780249, 7.833988 ], [ 6.7800677, 7.8339871 ], [ 6.7800068, 7.8337664 ], [ 6.779847, 7.833924 ], [ 6.7800677, 7.8339871 ], [ 6.7800668, 7.8341679 ], [ 6.780248, 7.8341688 ] ], [ [ 6.7831217, 7.8392458 ], [ 6.7827433, 7.8395034 ], [ 6.7831125, 7.8400427 ], [ 6.7832656, 7.8398435 ], [ 6.7831217, 7.8392458 ] ], [ [ 6.7630468, 7.8302815 ], [ 6.762603, 7.8304055 ], [ 6.7629204, 7.8307136 ], [ 6.7630468, 7.8302815 ] ], [ [ 6.7704407, 7.8375518 ], [ 6.7702045, 7.8376511 ], [ 6.7703659, 7.8379623 ], [ 6.7704407, 7.8375518 ] ] ] } }
]
}
