{
"type": "FeatureCollection",
"name": "april21",
"features": [
{ "type": "Feature", "properties": { "Id": 6166, "gridcode": 0, "Shape_Leng": 154232.92650500001, "Shape_Area": 17696863.261300001 }, "geometry": { "type": "Polygon", "coordinates": [ [ [ 6.77661, 7.8364998 ], [ 6.7767912, 7.8365007 ], [ 6.7767903, 7.8366815 ], [ 6.7769353, 7.8372577 ], [ 6.777149, 7.8374065 ], [ 6.777148, 7.8375873 ], [ 6.7771471, 7.8377681 ], [ 6.7768557, 7.837696 ], [ 6.7766293, 7.8373393 ], [ 6.7761711, 7.8375325 ], [ 6.7771912, 7.8386974 ], [ 6.7773959, 7.8383823 ], [ 6.7775068, 7.8383123 ], [ 6.7776333, 7.8390796 ], [ 6.7780449, 7.8393998 ], [ 6.7780439, 7.8395806 ], [ 6.778042, 7.8399422 ], [ 6.7782233, 7.8399431 ], [ 6.7782217, 7.8402328 ], [ 6.7776182, 7.8402315 ], [ 6.7774874, 7.8400396 ], [ 6.7775104, 7.8402312 ], [ 6.7762276, 7.8402284 ], [ 6.7762282, 7.8401134 ], [ 6.7760469, 7.8401124 ], [ 6.7760479, 7.8399316 ], [ 6.7760488, 7.8397509 ], [ 6.7758676, 7.8397499 ], [ 6.7758685, 7.8395691 ], [ 6.7758704, 7.8392076 ], [ 6.7756892, 7.8392066 ], [ 6.7756911, 7.8388451 ], [ 6.7755098, 7.8388441 ], [ 6.7755108, 7.8386633 ], [ 6.7753295, 7.8386624 ], [ 6.7753314, 7.8383008 ], [ 6.7751501, 7.8382999 ], [ 6.775152, 7.8379383 ], [ 6.7749708, 7.8379374 ], [ 6.7749197, 7.8376281 ], [ 6.7745619, 7.8372261 ], [ 6.7747844, 7.8369215 ], [ 6.7744856, 7.8367976 ], [ 6.7744346, 7.8364883 ], [ 6.7746559, 7.8364276 ], [ 6.7744978, 7.8362682 ], [ 6.7744346, 7.8364883 ], [ 6.7743278, 7.8364139 ], [ 6.7741827, 7.8358377 ], [ 6.7737184, 7.8348015 ], [ 6.773431, 7.8346013 ], [ 6.7732105, 7.8342794 ], [ 6.7727832, 7.8339817 ], [ 6.7723423, 7.8333378 ], [ 6.7717013, 7.8328913 ], [ 6.7714808, 7.8325693 ], [ 6.771374, 7.8324949 ], [ 6.771375, 7.8323142 ], [ 6.7711937, 7.8323132 ], [ 6.7711946, 7.8321324 ], [ 6.7711956, 7.8319517 ], [ 6.7710143, 7.8319507 ], [ 6.7710153, 7.8317699 ], [ 6.770834, 7.831769 ], [ 6.770835, 7.8315882 ], [ 6.7708359, 7.8314074 ], [ 6.7706546, 7.8314065 ], [ 6.7704997, 7.83084 ], [ 6.7701941, 7.8306022 ], [ 6.7699785, 7.8300689 ], [ 6.7683019, 7.827823 ], [ 6.7676728, 7.8280658 ], [ 6.7675124, 7.827669 ], [ 6.7673154, 7.8276969 ], [ 6.7670493, 7.827591 ], [ 6.7669006, 7.827417 ], [ 6.7661308, 7.8268666 ], [ 6.7649787, 7.8262175 ], [ 6.7647005, 7.8261323 ], [ 6.7647014, 7.8259516 ], [ 6.7645201, 7.8259506 ], [ 6.7645211, 7.8257698 ], [ 6.7643398, 7.8257689 ], [ 6.7643408, 7.8255881 ], [ 6.7641595, 7.8255871 ], [ 6.7641605, 7.8254064 ], [ 6.7637979, 7.8254044 ], [ 6.763971, 7.8249995 ], [ 6.7634383, 7.8248602 ], [ 6.7634402, 7.8244986 ], [ 6.7634421, 7.8241371 ], [ 6.7632609, 7.8241361 ], [ 6.7632638, 7.8235938 ], [ 6.7632647, 7.823413 ], [ 6.7630834, 7.8234121 ], [ 6.7630854, 7.8230505 ], [ 6.7630863, 7.8228698 ], [ 6.7629051, 7.8228688 ], [ 6.762906, 7.822688 ], [ 6.762907, 7.8225072 ], [ 6.7627257, 7.8225063 ], [ 6.7627267, 7.8223255 ], [ 6.7627286, 7.821964 ], [ 6.7625473, 7.821963 ], [ 6.7625493, 7.8216015 ], [ 6.762368, 7.8216005 ], [ 6.762369, 7.8214197 ], [ 6.7621877, 7.8214188 ], [ 6.7621896, 7.8210572 ], [ 6.7624435, 7.8208778 ], [ 6.7621915, 7.8206957 ], [ 6.7621925, 7.8205149 ], [ 6.7621944, 7.8201533 ], [ 6.7620132, 7.8201524 ], [ 6.7620141, 7.8199716 ], [ 6.7620151, 7.8197908 ], [ 6.7618338, 7.8197899 ], [ 6.7618357, 7.8194283 ], [ 6.7616545, 7.8194274 ], [ 6.7616554, 7.8192466 ], [ 6.7616564, 7.8190658 ], [ 6.7614751, 7.8190649 ], [ 6.7614771, 7.8187033 ], [ 6.7612958, 7.8187023 ], [ 6.7612967, 7.8185216 ], [ 6.7611155, 7.8185206 ], [ 6.7611164, 7.8183398 ], [ 6.7611174, 7.8181591 ], [ 6.7609361, 7.8181581 ], [ 6.7609371, 7.8179773 ], [ 6.7609381, 7.8177966 ], [ 6.7607568, 7.8177956 ], [ 6.7607578, 7.8176148 ], [ 6.7605765, 7.8176139 ], [ 6.7605775, 7.8174331 ], [ 6.7605784, 7.8172523 ], [ 6.7603971, 7.8172513 ], [ 6.7603991, 7.8168898 ], [ 6.7602178, 7.8168888 ], [ 6.7602188, 7.8167081 ], [ 6.7600375, 7.8167071 ], [ 6.7598582, 7.8163446 ], [ 6.7598591, 7.8161638 ], [ 6.7596779, 7.8161629 ], [ 6.7593163, 7.8159802 ], [ 6.7593172, 7.8157994 ], [ 6.759136, 7.8157984 ], [ 6.7589547, 7.8157975 ], [ 6.7589557, 7.8156167 ], [ 6.7588911, 7.8152887 ], [ 6.7585941, 7.815434 ], [ 6.7584128, 7.815433 ], [ 6.7584138, 7.8152523 ], [ 6.7582325, 7.8152513 ], [ 6.7580513, 7.8152503 ], [ 6.7580522, 7.8150696 ], [ 6.7578709, 7.8150686 ], [ 6.7578719, 7.8148878 ], [ 6.7576906, 7.8148869 ], [ 6.7575094, 7.8148859 ], [ 6.7575103, 7.8147051 ], [ 6.7573291, 7.8147042 ], [ 6.7571478, 7.8147032 ], [ 6.7571488, 7.8145224 ], [ 6.7569675, 7.8145215 ], [ 6.7569685, 7.8143407 ], [ 6.7567872, 7.8143397 ], [ 6.7566059, 7.8143388 ], [ 6.7566069, 7.814158 ], [ 6.7564256, 7.814157 ], [ 6.7564266, 7.8139763 ], [ 6.7562453, 7.8139753 ], [ 6.7562463, 7.8137945 ], [ 6.756065, 7.8137936 ], [ 6.756066, 7.8136128 ], [ 6.7558847, 7.8136118 ], [ 6.7558857, 7.813431 ], [ 6.7557044, 7.8134301 ], [ 6.7557054, 7.8132493 ], [ 6.7555241, 7.8132483 ], [ 6.7555251, 7.8130676 ], [ 6.7553438, 7.8130666 ], [ 6.7553448, 7.8128858 ], [ 6.7551635, 7.8128849 ], [ 6.7551645, 7.8127041 ], [ 6.7549832, 7.8127031 ], [ 6.7549842, 7.8125224 ], [ 6.7548029, 7.8125214 ], [ 6.7548039, 7.8123406 ], [ 6.7544413, 7.8123387 ], [ 6.7544423, 7.8121579 ], [ 6.754261, 7.812157 ], [ 6.7540798, 7.812156 ], [ 6.7540807, 7.8119752 ], [ 6.7538995, 7.8119743 ], [ 6.7535379, 7.8117916 ], [ 6.7535389, 7.8116108 ], [ 6.7533576, 7.8116098 ], [ 6.7531763, 7.8116089 ], [ 6.7531773, 7.8114281 ], [ 6.752996, 7.8114271 ], [ 6.752997, 7.8112464 ], [ 6.7528157, 7.8112454 ], [ 6.7524542, 7.8110627 ], [ 6.7524551, 7.8108819 ], [ 6.7520926, 7.81088 ], [ 6.7520936, 7.8106992 ], [ 6.7519123, 7.8106983 ], [ 6.7519133, 7.8105175 ], [ 6.751732, 7.8105165 ], [ 6.751733, 7.8103357 ], [ 6.7515517, 7.8103348 ], [ 6.7513704, 7.8103338 ], [ 6.7512499, 7.8100931 ], [ 6.7510098, 7.8099703 ], [ 6.7510108, 7.8097896 ], [ 6.7508295, 7.8097886 ], [ 6.7506483, 7.8097876 ], [ 6.7506492, 7.8096069 ], [ 6.7506502, 7.8094261 ], [ 6.7504689, 7.8094251 ], [ 6.7504699, 7.8092444 ], [ 6.7503593, 7.8089776 ], [ 6.7504436, 7.8086115 ], [ 6.7503643, 7.8082495 ], [ 6.7504931, 7.8076906 ], [ 6.7503012, 7.8068933 ], [ 6.7503041, 7.806351 ], [ 6.7507405, 7.806054 ], [ 6.7508518, 7.8056308 ], [ 6.751033, 7.8056318 ], [ 6.751034, 7.805451 ], [ 6.751035, 7.8052703 ], [ 6.7512162, 7.8052712 ], [ 6.751224, 7.803825 ], [ 6.7510427, 7.8038241 ], [ 6.7510437, 7.8036433 ], [ 6.7506812, 7.8036414 ], [ 6.7504808, 7.8028452 ], [ 6.7503235, 7.8027356 ], [ 6.7503244, 7.8025548 ], [ 6.7503264, 7.8021933 ], [ 6.7501451, 7.8021923 ], [ 6.7501461, 7.8020115 ], [ 6.750149, 7.8014692 ], [ 6.7499677, 7.8014682 ], [ 6.7499687, 7.8012875 ], [ 6.7501519, 7.8009269 ], [ 6.7501528, 7.8007461 ], [ 6.7501538, 7.8005654 ], [ 6.7497913, 7.8005634 ], [ 6.7497922, 7.8003827 ], [ 6.7499715, 7.7999632 ], [ 6.7496819, 7.7997615 ], [ 6.7497629, 7.79941 ], [ 6.749364, 7.7988272 ], [ 6.7492572, 7.7987528 ], [ 6.749261, 7.7980297 ], [ 6.7494937, 7.7979406 ], [ 6.749262, 7.7978489 ], [ 6.749263, 7.7976682 ], [ 6.7490817, 7.7976672 ], [ 6.7489923, 7.7974352 ], [ 6.7489004, 7.7976662 ], [ 6.7487192, 7.7976653 ], [ 6.7487201, 7.7974845 ], [ 6.7487211, 7.7973037 ], [ 6.7489538, 7.7972146 ], [ 6.7487221, 7.797123 ], [ 6.748723, 7.7969422 ], [ 6.748724, 7.7967614 ], [ 6.7485428, 7.7967605 ], [ 6.7484835, 7.7964593 ], [ 6.7483644, 7.7962172 ], [ 6.7483654, 7.7960364 ], [ 6.7481841, 7.7960354 ], [ 6.7480028, 7.7960345 ], [ 6.7480038, 7.7958537 ], [ 6.7478225, 7.7958527 ], [ 6.7478235, 7.795672 ], [ 6.7478245, 7.7954912 ], [ 6.7476432, 7.7954902 ], [ 6.7476452, 7.7951287 ], [ 6.7474639, 7.7951277 ], [ 6.7474649, 7.7949469 ], [ 6.7474658, 7.7947662 ], [ 6.7474668, 7.7945854 ], [ 6.7472855, 7.7945844 ], [ 6.7472865, 7.7944037 ], [ 6.7472875, 7.7942229 ], [ 6.7471062, 7.7942219 ], [ 6.7471082, 7.7938604 ], [ 6.7469269, 7.7938594 ], [ 6.7464938, 7.7932078 ], [ 6.746387, 7.7931334 ], [ 6.746388, 7.7929527 ], [ 6.7462067, 7.7929517 ], [ 6.7460254, 7.7929507 ], [ 6.7460264, 7.79277 ], [ 6.7458451, 7.792769 ], [ 6.7458461, 7.7925882 ], [ 6.7458471, 7.7924075 ], [ 6.7456658, 7.7924065 ], [ 6.7454655, 7.7916103 ], [ 6.7453081, 7.7915007 ], [ 6.7453091, 7.7913199 ], [ 6.745312, 7.7907776 ], [ 6.7451308, 7.7907766 ], [ 6.7451317, 7.7905959 ], [ 6.7451327, 7.7904151 ], [ 6.7449514, 7.7904141 ], [ 6.7449524, 7.7902334 ], [ 6.7448074, 7.7896572 ], [ 6.7445938, 7.7895084 ], [ 6.7445976, 7.7887853 ], [ 6.7444164, 7.7887843 ], [ 6.7444173, 7.7886035 ], [ 6.7444202, 7.7880612 ], [ 6.744239, 7.7880602 ], [ 6.74424, 7.7878795 ], [ 6.744107, 7.7864528 ], [ 6.7442496, 7.7860718 ], [ 6.7444823, 7.7859826 ], [ 6.7442506, 7.785891 ], [ 6.7441397, 7.7856236 ], [ 6.7442545, 7.7851679 ], [ 6.7444871, 7.7850787 ], [ 6.7442554, 7.7849871 ], [ 6.7442574, 7.7846256 ], [ 6.7442593, 7.784264 ], [ 6.744078, 7.7842631 ], [ 6.744079, 7.7840823 ], [ 6.744081, 7.7837208 ], [ 6.7442622, 7.7837217 ], [ 6.7442641, 7.7833602 ], [ 6.7444454, 7.7833611 ], [ 6.7444483, 7.7828188 ], [ 6.7446295, 7.7828198 ], [ 6.7446334, 7.7820967 ], [ 6.7444522, 7.7820957 ], [ 6.7444531, 7.781915 ], [ 6.7443886, 7.781587 ], [ 6.7440916, 7.7817323 ], [ 6.7440935, 7.7813707 ], [ 6.7440974, 7.7806476 ], [ 6.7439161, 7.7806467 ], [ 6.7439181, 7.7802851 ], [ 6.7440962, 7.7801639 ], [ 6.7443605, 7.7790165 ], [ 6.7441071, 7.7788399 ], [ 6.744108, 7.7786591 ], [ 6.7442893, 7.7786601 ], [ 6.7442941, 7.7777563 ], [ 6.7441129, 7.7777553 ], [ 6.7441138, 7.7775745 ], [ 6.7441196, 7.7764899 ], [ 6.7439384, 7.7764889 ], [ 6.7440426, 7.7756768 ], [ 6.74387, 7.7738931 ], [ 6.7441501, 7.7714892 ], [ 6.7445538, 7.7701437 ], [ 6.7448434, 7.7696455 ], [ 6.7450664, 7.7689023 ], [ 6.7452816, 7.7687557 ], [ 6.7454328, 7.7681811 ], [ 6.7454337, 7.7680003 ], [ 6.7457217, 7.7679155 ], [ 6.7466881, 7.7667629 ], [ 6.7468962, 7.765658 ], [ 6.7469001, 7.7649349 ], [ 6.7469078, 7.7634887 ], [ 6.7467265, 7.7634878 ], [ 6.7467285, 7.7631262 ], [ 6.7467294, 7.7629454 ], [ 6.7465482, 7.7629445 ], [ 6.7465492, 7.7627637 ], [ 6.7465511, 7.7624022 ], [ 6.7463698, 7.7624012 ], [ 6.7463708, 7.7622204 ], [ 6.7463814, 7.7602319 ], [ 6.7462002, 7.760231 ], [ 6.7462021, 7.7598694 ], [ 6.746203, 7.7596887 ], [ 6.746204, 7.7595079 ], [ 6.7462136, 7.7577002 ], [ 6.7465761, 7.7577021 ], [ 6.7466506, 7.7624877 ], [ 6.747186, 7.7625015 ], [ 6.747278, 7.7620445 ], [ 6.747279, 7.7618637 ], [ 6.7475328, 7.7616843 ], [ 6.7472809, 7.7615021 ], [ 6.7472828, 7.7611406 ], [ 6.7474044, 7.7608997 ], [ 6.7474669, 7.7605992 ], [ 6.7474679, 7.7604185 ], [ 6.7476491, 7.7604194 ], [ 6.747654, 7.7595156 ], [ 6.7476559, 7.759154 ], [ 6.7476597, 7.7584309 ], [ 6.7476636, 7.7577078 ], [ 6.7476694, 7.7566232 ], [ 6.7476703, 7.7564424 ], [ 6.7476713, 7.7562617 ], [ 6.74749, 7.7562607 ], [ 6.747491, 7.7560799 ], [ 6.7474929, 7.7557184 ], [ 6.7474939, 7.7555376 ], [ 6.7478564, 7.7555395 ], [ 6.7478593, 7.7549972 ], [ 6.747678, 7.7549963 ], [ 6.7476799, 7.7546347 ], [ 6.7479338, 7.7544553 ], [ 6.7476819, 7.7542732 ], [ 6.7476838, 7.7539116 ], [ 6.7476867, 7.7533693 ], [ 6.7476886, 7.7530078 ], [ 6.7476915, 7.7524654 ], [ 6.7476924, 7.7522847 ], [ 6.7477001, 7.7508385 ], [ 6.7475189, 7.7508375 ], [ 6.7476669, 7.7499956 ], [ 6.7479705, 7.7489301 ], [ 6.7480407, 7.7487546 ], [ 6.7601919, 7.7487818 ], [ 6.7604129, 7.7491714 ], [ 6.7606538, 7.7502825 ], [ 6.7608509, 7.7504476 ], [ 6.7614392, 7.7518202 ], [ 6.7616499, 7.7519967 ], [ 6.7616461, 7.7527198 ], [ 6.7618274, 7.7527208 ], [ 6.7618226, 7.7536247 ], [ 6.7620038, 7.7536256 ], [ 6.762, 7.7543487 ], [ 6.7621813, 7.7543497 ], [ 6.7621784, 7.754892 ], [ 6.761278, 7.7552611 ], [ 6.7603148, 7.7561104 ], [ 6.7597093, 7.7580392 ], [ 6.7597291, 7.7584043 ], [ 6.7596997, 7.7588561 ], [ 6.7597145, 7.7591273 ], [ 6.7596723, 7.7597766 ], [ 6.7598893, 7.7603901 ], [ 6.7598563, 7.7608975 ], [ 6.7600559, 7.7611228 ], [ 6.7602465, 7.7612944 ], [ 6.7604156, 7.761667 ], [ 6.761002, 7.76243 ], [ 6.7613141, 7.763118 ], [ 6.761684, 7.7636521 ], [ 6.7618531, 7.7640247 ], [ 6.762223, 7.7645588 ], [ 6.7628338, 7.7674721 ], [ 6.7642799, 7.7706589 ], [ 6.7644505, 7.7708125 ], [ 6.7645692, 7.7714659 ], [ 6.7648913, 7.7721758 ], [ 6.7653449, 7.773019 ], [ 6.7666512, 7.7761984 ], [ 6.7669443, 7.7771631 ], [ 6.7671348, 7.7773347 ], [ 6.7671281, 7.7786002 ], [ 6.7673094, 7.7786011 ], [ 6.7673084, 7.7787819 ], [ 6.7673712, 7.7799788 ], [ 6.7675928, 7.7804793 ], [ 6.7677309, 7.7812681 ], [ 6.7681886, 7.7826488 ], [ 6.7683749, 7.7827647 ], [ 6.7684448, 7.783342 ], [ 6.7687336, 7.7834897 ], [ 6.7688035, 7.784067 ], [ 6.7690923, 7.7842147 ], [ 6.7690904, 7.7845762 ], [ 6.7692716, 7.7845772 ], [ 6.7693505, 7.7849779 ], [ 6.7696313, 7.7851214 ], [ 6.7696293, 7.785483 ], [ 6.7698106, 7.7854839 ], [ 6.7698087, 7.7858455 ], [ 6.76999, 7.7858464 ], [ 6.77011, 7.7863232 ], [ 6.7706749, 7.7871486 ], [ 6.7708886, 7.7872974 ], [ 6.7709743, 7.7875725 ], [ 6.7711949, 7.7882108 ], [ 6.7729551, 7.7913724 ], [ 6.7756057, 7.7961724 ], [ 6.7766313, 7.7975209 ], [ 6.7798579, 7.8011468 ], [ 6.7808753, 7.8018992 ], [ 6.7815905, 7.8024522 ], [ 6.7829485, 7.8034177 ], [ 6.7839167, 7.8038796 ], [ 6.7850203, 7.804785 ], [ 6.7851149, 7.8050886 ], [ 6.7848734, 7.8049673 ], [ 6.7837885, 7.8048401 ], [ 6.7836648, 7.805081 ], [ 6.7833967, 7.8053173 ], [ 6.7835757, 7.8067395 ], [ 6.784098, 7.8078905 ], [ 6.7848107, 7.8090537 ], [ 6.7848653, 7.8100558 ], [ 6.7833908, 7.8103223 ], [ 6.7830235, 7.8119934 ], [ 6.7829853, 7.8125799 ], [ 6.7830024, 7.8128928 ], [ 6.7826529, 7.8151059 ], [ 6.7826056, 7.8158319 ], [ 6.7826253, 7.8161936 ], [ 6.7825202, 7.81781 ], [ 6.7827893, 7.8189919 ], [ 6.7833664, 7.8199074 ], [ 6.7839565, 7.8204388 ], [ 6.7845246, 7.8210796 ], [ 6.7858969, 7.8205877 ], [ 6.7869457, 7.819837 ], [ 6.7880224, 7.8190139 ], [ 6.788694, 7.8187107 ], [ 6.7903153, 7.8177807 ], [ 6.7905768, 7.8174919 ], [ 6.7912457, 7.817859 ], [ 6.7920397, 7.8173121 ], [ 6.7928525, 7.8173646 ], [ 6.7938835, 7.8165764 ], [ 6.7945754, 7.8167934 ], [ 6.795205, 7.8175036 ], [ 6.7960638, 7.8175592 ], [ 6.7973752, 7.8173338 ], [ 6.7981022, 7.8173808 ], [ 6.7992373, 7.8173193 ], [ 6.8002923, 7.8175699 ], [ 6.8020204, 7.8185181 ], [ 6.803354, 7.8190031 ], [ 6.8034211, 7.8190075 ], [ 6.8034151, 7.8216904 ], [ 6.8026113, 7.8217506 ], [ 6.8019771, 7.8216965 ], [ 6.8016094, 7.821724 ], [ 6.8012596, 7.821527 ], [ 6.8003406, 7.8213549 ], [ 6.8000473, 7.8210117 ], [ 6.7994307, 7.8209591 ], [ 6.7983476, 7.8211503 ], [ 6.7974506, 7.8215215 ], [ 6.7967412, 7.821461 ], [ 6.7963285, 7.8221104 ], [ 6.7956343, 7.8225958 ], [ 6.7951245, 7.8228195 ], [ 6.7941102, 7.8234457 ], [ 6.7934379, 7.8240172 ], [ 6.7924455, 7.8253803 ], [ 6.7916291, 7.825829 ], [ 6.7907074, 7.8261723 ], [ 6.790622, 7.8264497 ], [ 6.7904407, 7.8264488 ], [ 6.7902594, 7.8264478 ], [ 6.7902604, 7.826267 ], [ 6.7898978, 7.8262651 ], [ 6.7898988, 7.8260844 ], [ 6.7895362, 7.8260825 ], [ 6.7895372, 7.8259017 ], [ 6.7891746, 7.8258998 ], [ 6.7891756, 7.825719 ], [ 6.7889943, 7.8257181 ], [ 6.788813, 7.8257171 ], [ 6.788814, 7.8255363 ], [ 6.7886327, 7.8255354 ], [ 6.7884514, 7.8255344 ], [ 6.7884524, 7.8253536 ], [ 6.7880898, 7.8253517 ], [ 6.7877273, 7.8253498 ], [ 6.7877282, 7.8251691 ], [ 6.787547, 7.8251681 ], [ 6.7873657, 7.8251672 ], [ 6.7873666, 7.8249864 ], [ 6.7868228, 7.8249835 ], [ 6.7868238, 7.8248028 ], [ 6.7864612, 7.8248009 ], [ 6.7864622, 7.8246201 ], [ 6.7862809, 7.8246191 ], [ 6.7860996, 7.8246182 ], [ 6.7861006, 7.8244374 ], [ 6.7859193, 7.8244364 ], [ 6.7859202, 7.8242557 ], [ 6.7855577, 7.8242538 ], [ 6.7855586, 7.824073 ], [ 6.7853774, 7.824072 ], [ 6.7853783, 7.8238913 ], [ 6.785197, 7.8238903 ], [ 6.7850158, 7.8238894 ], [ 6.7850167, 7.8237086 ], [ 6.7848354, 7.8237076 ], [ 6.7848364, 7.8235269 ], [ 6.7846551, 7.8235259 ], [ 6.7846561, 7.8233451 ], [ 6.7844748, 7.8233442 ], [ 6.7844757, 7.8231634 ], [ 6.7842945, 7.8231624 ], [ 6.7842954, 7.8229817 ], [ 6.7841142, 7.8229807 ], [ 6.7839329, 7.8229798 ], [ 6.7839338, 7.822799 ], [ 6.7837526, 7.822798 ], [ 6.7837535, 7.8226173 ], [ 6.7835722, 7.8226163 ], [ 6.7835732, 7.8224355 ], [ 6.7833919, 7.8224346 ], [ 6.7832106, 7.8224336 ], [ 6.7832116, 7.8222529 ], [ 6.7830303, 7.8222519 ], [ 6.7830313, 7.8220711 ], [ 6.78285, 7.8220702 ], [ 6.782851, 7.8218894 ], [ 6.7826697, 7.8218884 ], [ 6.7824884, 7.8218875 ], [ 6.7824894, 7.8217067 ], [ 6.7823081, 7.8217058 ], [ 6.782309, 7.821525 ], [ 6.7821278, 7.821524 ], [ 6.7819465, 7.8215231 ], [ 6.7819474, 7.8213423 ], [ 6.7817662, 7.8213413 ], [ 6.7817671, 7.8211606 ], [ 6.7815859, 7.8211596 ], [ 6.7815868, 7.8209788 ], [ 6.7814055, 7.8209779 ], [ 6.7814065, 7.8207971 ], [ 6.7812252, 7.8207962 ], [ 6.7812262, 7.8206154 ], [ 6.7810449, 7.8206144 ], [ 6.7810459, 7.8204337 ], [ 6.7808646, 7.8204327 ], [ 6.7808655, 7.8202519 ], [ 6.7806843, 7.820251 ], [ 6.7806852, 7.8200702 ], [ 6.7805039, 7.8200692 ], [ 6.7805049, 7.8198885 ], [ 6.7803236, 7.8198875 ], [ 6.7803246, 7.8197067 ], [ 6.7801433, 7.8197058 ], [ 6.7799625, 7.8193447 ], [ 6.7796024, 7.8191606 ], [ 6.7796033, 7.8189798 ], [ 6.7792408, 7.8189779 ], [ 6.7792417, 7.8187971 ], [ 6.7790604, 7.8187962 ], [ 6.7782235, 7.8177413 ], [ 6.778264, 7.8174296 ], [ 6.7780604, 7.81708 ], [ 6.778103, 7.8167531 ], [ 6.7771868, 7.8160144 ], [ 6.7762564, 7.8158085 ], [ 6.7749992, 7.8152345 ], [ 6.7746434, 7.8154405 ], [ 6.7738032, 7.8153318 ], [ 6.7731759, 7.8155915 ], [ 6.7730136, 7.8157915 ], [ 6.7728114, 7.8159512 ], [ 6.7726491, 7.8161511 ], [ 6.7720835, 7.8164897 ], [ 6.7716228, 7.817237 ], [ 6.7706256, 7.8179282 ], [ 6.7705445, 7.8180282 ], [ 6.7703632, 7.8180272 ], [ 6.7701819, 7.8180263 ], [ 6.7698194, 7.8180243 ], [ 6.7696381, 7.8180234 ], [ 6.7696372, 7.8182042 ], [ 6.7694559, 7.8182032 ], [ 6.7692746, 7.8182022 ], [ 6.7692736, 7.818383 ], [ 6.7690924, 7.8183821 ], [ 6.7690895, 7.8189244 ], [ 6.7692708, 7.8189253 ], [ 6.7692688, 7.8192869 ], [ 6.7693387, 7.8198643 ], [ 6.7696275, 7.8200119 ], [ 6.7696266, 7.8201927 ], [ 6.7698079, 7.8201936 ], [ 6.7699372, 7.8207074 ], [ 6.7711807, 7.8215364 ], [ 6.7716129, 7.8216494 ], [ 6.7721619, 7.8223665 ], [ 6.7728751, 7.8229215 ], [ 6.7729819, 7.8233459 ], [ 6.7734151, 7.8236475 ], [ 6.773494, 7.8240482 ], [ 6.7737748, 7.8241917 ], [ 6.7738548, 7.8245096 ], [ 6.7743539, 7.8252388 ], [ 6.7746744, 7.825462 ], [ 6.7746735, 7.8256427 ], [ 6.7748547, 7.8256437 ], [ 6.7749337, 7.8260444 ], [ 6.7752144, 7.8261879 ], [ 6.7752135, 7.8263687 ], [ 6.7753947, 7.8263697 ], [ 6.7754747, 7.8266875 ], [ 6.7759004, 7.8273093 ], [ 6.7761141, 7.8274581 ], [ 6.7762209, 7.8278825 ], [ 6.7766541, 7.8281841 ], [ 6.7766531, 7.8283649 ], [ 6.7768344, 7.8283658 ], [ 6.7769144, 7.8286837 ], [ 6.7775605, 7.8296275 ], [ 6.7780947, 7.8299995 ], [ 6.7780938, 7.8301803 ], [ 6.778275, 7.8301812 ], [ 6.7785729, 7.8306164 ], [ 6.7789973, 7.8307274 ], [ 6.7793389, 7.8311736 ], [ 6.7803389, 7.8319212 ], [ 6.7806221, 7.8320014 ], [ 6.7806211, 7.8321822 ], [ 6.7809837, 7.8321841 ], [ 6.7811677, 7.8324245 ], [ 6.7818882, 7.8325504 ], [ 6.7821022, 7.8328008 ], [ 6.783069, 7.8333634 ], [ 6.7840549, 7.8341889 ], [ 6.7841789, 7.8346813 ], [ 6.7847753, 7.8350966 ], [ 6.7847743, 7.8352773 ], [ 6.7849556, 7.8352783 ], [ 6.7849546, 7.8354591 ], [ 6.7851359, 7.83546 ], [ 6.785135, 7.8356408 ], [ 6.7853162, 7.8356417 ], [ 6.7853153, 7.8358225 ], [ 6.7854966, 7.8358235 ], [ 6.7854956, 7.8360042 ], [ 6.7856769, 7.8360052 ], [ 6.7856759, 7.836186 ], [ 6.7858572, 7.8361869 ], [ 6.7868578, 7.8373576 ], [ 6.7880211, 7.8383677 ], [ 6.7880202, 7.8385485 ], [ 6.7882015, 7.8385494 ], [ 6.7882005, 7.8387302 ], [ 6.7883818, 7.8387311 ], [ 6.7887013, 7.839375 ], [ 6.7891031, 7.8394581 ], [ 6.7892236, 7.8396988 ], [ 6.7894638, 7.8398215 ], [ 6.7894628, 7.8400023 ], [ 6.7896441, 7.8400032 ], [ 6.7896431, 7.840184 ], [ 6.7898244, 7.840185 ], [ 6.789824, 7.8402579 ], [ 6.7894272, 7.8402571 ], [ 6.7892806, 7.8401821 ], [ 6.7892815, 7.8400013 ], [ 6.7891002, 7.8400004 ], [ 6.7891012, 7.8398196 ], [ 6.7889199, 7.8398187 ], [ 6.7887024, 7.8395547 ], [ 6.7884782, 7.8401444 ], [ 6.7886107, 7.8402553 ], [ 6.7805784, 7.8402379 ], [ 6.780579, 7.8401363 ], [ 6.7803977, 7.8401354 ], [ 6.7802183, 7.8397729 ], [ 6.7802193, 7.8395921 ], [ 6.780038, 7.8395911 ], [ 6.780039, 7.8394104 ], [ 6.7800399, 7.8392296 ], [ 6.7798586, 7.8392286 ], [ 6.7798596, 7.8390479 ], [ 6.7798606, 7.8388671 ], [ 6.7796793, 7.8388661 ], [ 6.7796802, 7.8386853 ], [ 6.779499, 7.8386844 ], [ 6.7789589, 7.8379584 ], [ 6.7789599, 7.8377776 ], [ 6.7787786, 7.8377767 ], [ 6.7787796, 7.8375959 ], [ 6.7785983, 7.837595 ], [ 6.7785993, 7.8374142 ], [ 6.778418, 7.8374132 ], [ 6.7775154, 7.8366853 ], [ 6.7775164, 7.8365046 ], [ 6.7773351, 7.8365036 ], [ 6.7772146, 7.8362629 ], [ 6.7769744, 7.8361401 ], [ 6.7769754, 7.8359594 ], [ 6.7767941, 7.8359584 ], [ 6.7766128, 7.8359575 ], [ 6.776523, 7.8357253 ], [ 6.7763952, 7.8360522 ], [ 6.7766119, 7.8361382 ], [ 6.77661, 7.8364998 ], [ 6.7764287, 7.8364988 ], [ 6.7763393, 7.8362668 ], [ 6.7762474, 7.8364979 ], [ 6.7762464, 7.8366786 ], [ 6.7762455, 7.8368594 ], [ 6.7764268, 7.8368604 ], [ 6.7764876, 7.8370811 ], [ 6.7766475, 7.8369234 ], [ 6.7764268, 7.8368604 ], [ 6.7764277, 7.8366796 ], [ 6.776609, 7.8366806 ], [ 6.77661, 7.8364998 ] ], [ [ 6.77588, 7.8373998 ], [ 6.7761014, 7.8373391 ], [ 6.7759433, 7.8371797 ], [ 6.77588, 7.8373998 ], [ 6.7756587, 7.8374605 ], [ 6.7758168, 7.8376199 ], [ 6.77588, 7.8373998 ] ], [ [ 6.7767749, 7.8395739 ], [ 6.7761433, 7.8396907 ], [ 6.7766607, 7.840154 ], [ 6.7767749, 7.8395739 ] ], [ [ 6.7784448, 7.8323515 ], [ 6.7785653, 7.8325922 ], [ 6.7788055, 7.832715 ], [ 6.7788045, 7.8328957 ], [ 6.7789858, 7.8328967 ], [ 6.7789839, 7.8332582 ], [ 6.7793464, 7.8332602 ], [ 6.7793455, 7.8334409 ], [ 6.7795267, 7.8334419 ], [ 6.7795258, 7.8336227 ], [ 6.7797071, 7.8336236 ], [ 6.779786, 7.8340244 ], [ 6.7800668, 7.8341679 ], [ 6.7800658, 7.8343486 ], [ 6.7802471, 7.8343496 ], [ 6.7802461, 7.8345304 ], [ 6.7804274, 7.8345313 ], [ 6.7804255, 7.8348929 ], [ 6.7806068, 7.8348938 ], [ 6.7806857, 7.8352946 ], [ 6.7809664, 7.8354381 ], [ 6.7809645, 7.8357996 ], [ 6.7811458, 7.8358006 ], [ 6.7812247, 7.8362013 ], [ 6.7815055, 7.8363448 ], [ 6.7815036, 7.8367064 ], [ 6.7816849, 7.8367073 ], [ 6.7816839, 7.8368881 ], [ 6.7818652, 7.836889 ], [ 6.7818642, 7.8370698 ], [ 6.7820455, 7.8370708 ], [ 6.7820446, 7.8372516 ], [ 6.7822258, 7.8372525 ], [ 6.7822249, 7.8374333 ], [ 6.7824062, 7.8374342 ], [ 6.7824052, 7.837615 ], [ 6.7825865, 7.837616 ], [ 6.7825855, 7.8377967 ], [ 6.7827668, 7.8377977 ], [ 6.7831294, 7.8377996 ], [ 6.7833107, 7.8378006 ], [ 6.7833116, 7.8376198 ], [ 6.783553, 7.8374996 ], [ 6.7836761, 7.8372601 ], [ 6.7838574, 7.8372611 ], [ 6.7838583, 7.8370803 ], [ 6.7838602, 7.8367188 ], [ 6.7838612, 7.836538 ], [ 6.7836799, 7.836537 ], [ 6.7836818, 7.8361755 ], [ 6.7836828, 7.8359947 ], [ 6.7835015, 7.8359938 ], [ 6.7833221, 7.8356313 ], [ 6.7833231, 7.8354505 ], [ 6.7831418, 7.8354495 ], [ 6.7831428, 7.8352687 ], [ 6.7829615, 7.8352678 ], [ 6.7829624, 7.835087 ], [ 6.7829634, 7.8349062 ], [ 6.7827821, 7.8349053 ], [ 6.7827831, 7.8347245 ], [ 6.7826018, 7.8347236 ], [ 6.7822402, 7.8345409 ], [ 6.7822412, 7.8343601 ], [ 6.7820599, 7.8343591 ], [ 6.7820608, 7.8341784 ], [ 6.7818796, 7.8341774 ], [ 6.7815179, 7.8339947 ], [ 6.7815189, 7.8338139 ], [ 6.7813376, 7.833813 ], [ 6.7811563, 7.833812 ], [ 6.7811573, 7.8336313 ], [ 6.780976, 7.8336303 ], [ 6.7807947, 7.8336294 ], [ 6.7807957, 7.8334486 ], [ 6.7806144, 7.8334476 ], [ 6.7804331, 7.8334467 ], [ 6.7804341, 7.8332659 ], [ 6.7802528, 7.8332649 ], [ 6.7800715, 7.833264 ], [ 6.7800725, 7.8330832 ], [ 6.7798912, 7.8330822 ], [ 6.7798922, 7.8329015 ], [ 6.7793483, 7.8328986 ], [ 6.7793493, 7.8327178 ], [ 6.779168, 7.8327169 ], [ 6.779169, 7.8325361 ], [ 6.7789877, 7.8325351 ], [ 6.7788064, 7.8325342 ], [ 6.7788074, 7.8323534 ], [ 6.7784448, 7.8323515 ], [ 6.7783839, 7.8321308 ], [ 6.7782241, 7.8322885 ], [ 6.7784448, 7.8323515 ] ], [ [ 6.7773408, 7.835419 ], [ 6.7773428, 7.8350574 ], [ 6.7773437, 7.8348766 ], [ 6.7771624, 7.8348757 ], [ 6.7771634, 7.8346949 ], [ 6.7769821, 7.8346939 ], [ 6.7768028, 7.8343314 ], [ 6.7768037, 7.8341507 ], [ 6.7766224, 7.8341497 ], [ 6.7766234, 7.8339689 ], [ 6.7764421, 7.833968 ], [ 6.7762628, 7.8336055 ], [ 6.7762637, 7.8334247 ], [ 6.7760824, 7.8334237 ], [ 6.7760834, 7.8332429 ], [ 6.7759021, 7.833242 ], [ 6.7759031, 7.8330612 ], [ 6.7757218, 7.8330603 ], [ 6.7757228, 7.8328795 ], [ 6.7755415, 7.8328785 ], [ 6.7753602, 7.8328776 ], [ 6.7747438, 7.8320724 ], [ 6.7743776, 7.8323483 ], [ 6.7750161, 7.8331958 ], [ 6.7755376, 7.8336016 ], [ 6.7755367, 7.8337824 ], [ 6.775718, 7.8337834 ], [ 6.775717, 7.8339641 ], [ 6.7758983, 7.8339651 ], [ 6.7758973, 7.8341459 ], [ 6.7758964, 7.8343266 ], [ 6.7760776, 7.8343276 ], [ 6.7760767, 7.8345084 ], [ 6.776258, 7.8345093 ], [ 6.776257, 7.8346901 ], [ 6.7764383, 7.8346911 ], [ 6.7764373, 7.8348718 ], [ 6.7766186, 7.8348728 ], [ 6.7766176, 7.8350536 ], [ 6.7766167, 7.8352343 ], [ 6.7769792, 7.8352363 ], [ 6.7769783, 7.835417 ], [ 6.7771596, 7.835418 ], [ 6.777249, 7.83565 ], [ 6.7773408, 7.835419 ] ], [ [ 6.7717394, 7.8319545 ], [ 6.7715181, 7.8320153 ], [ 6.7716762, 7.8321746 ], [ 6.7717394, 7.8319545 ] ], [ [ 6.7713364, 7.8293413 ], [ 6.7714978, 7.8296524 ], [ 6.7715726, 7.829242 ], [ 6.7713364, 7.8293413 ] ], [ [ 6.7635394, 7.8217976 ], [ 6.7638162, 7.8219697 ], [ 6.7640969, 7.8226754 ], [ 6.7643552, 7.8228765 ], [ 6.7644341, 7.8232772 ], [ 6.7647149, 7.8234207 ], [ 6.7647139, 7.8236015 ], [ 6.7648952, 7.8236025 ], [ 6.7649403, 7.8239227 ], [ 6.7654806, 7.8244635 ], [ 6.7657968, 7.8245111 ], [ 6.7657958, 7.8246919 ], [ 6.7659771, 7.8246929 ], [ 6.7659761, 7.8248736 ], [ 6.7661574, 7.8248746 ], [ 6.7661564, 7.8250554 ], [ 6.7663377, 7.8250563 ], [ 6.7663367, 7.8252371 ], [ 6.766518, 7.8252381 ], [ 6.7668159, 7.8256732 ], [ 6.7672402, 7.8257842 ], [ 6.767557, 7.826198 ], [ 6.768325, 7.8263323 ], [ 6.768324, 7.8265131 ], [ 6.7686866, 7.826515 ], [ 6.7686856, 7.8266958 ], [ 6.7688669, 7.8266967 ], [ 6.7688659, 7.8268775 ], [ 6.7690472, 7.8268785 ], [ 6.7690462, 7.8270592 ], [ 6.7694088, 7.8270612 ], [ 6.7694078, 7.8272419 ], [ 6.7695891, 7.8272429 ], [ 6.7695881, 7.8274237 ], [ 6.7699507, 7.8274256 ], [ 6.7700401, 7.8276576 ], [ 6.770132, 7.8274265 ], [ 6.7703132, 7.8274275 ], [ 6.7704945, 7.8274285 ], [ 6.7704974, 7.8268861 ], [ 6.7703161, 7.8268852 ], [ 6.7702568, 7.826584 ], [ 6.7701377, 7.8263419 ], [ 6.7701387, 7.8261611 ], [ 6.7699574, 7.8261602 ], [ 6.7696635, 7.8257308 ], [ 6.7692362, 7.8254332 ], [ 6.7692371, 7.8252525 ], [ 6.7690559, 7.8252515 ], [ 6.7676143, 7.8236169 ], [ 6.7676153, 7.8234361 ], [ 6.767434, 7.8234351 ], [ 6.767435, 7.8232543 ], [ 6.7672537, 7.8232534 ], [ 6.7670724, 7.8232524 ], [ 6.7670734, 7.8230717 ], [ 6.7668921, 7.8230707 ], [ 6.7668931, 7.8228899 ], [ 6.7667118, 7.822889 ], [ 6.7667128, 7.8227082 ], [ 6.7665315, 7.8227072 ], [ 6.7665324, 7.8225264 ], [ 6.7663512, 7.8225255 ], [ 6.7663521, 7.8223447 ], [ 6.7661709, 7.8223438 ], [ 6.7659896, 7.8223428 ], [ 6.7659906, 7.822162 ], [ 6.7658093, 7.8221611 ], [ 6.7658102, 7.8219803 ], [ 6.7654477, 7.8219784 ], [ 6.7654487, 7.8217976 ], [ 6.7652674, 7.8217966 ], [ 6.7650861, 7.8217957 ], [ 6.7650871, 7.8216149 ], [ 6.7649058, 7.8216139 ], [ 6.7647245, 7.821613 ], [ 6.7647255, 7.8214322 ], [ 6.7645442, 7.8214312 ], [ 6.764363, 7.8214303 ], [ 6.7642855, 7.8213033 ], [ 6.7633896, 7.8210199 ], [ 6.7635394, 7.8217976 ] ], [ [ 6.760063, 7.7778398 ], [ 6.7597005, 7.7778379 ], [ 6.7596996, 7.7780187 ], [ 6.7596986, 7.7781994 ], [ 6.7595174, 7.7781985 ], [ 6.7595193, 7.7778369 ], [ 6.7595212, 7.7774754 ], [ 6.7595231, 7.7771138 ], [ 6.7593419, 7.7771129 ], [ 6.7593428, 7.7769321 ], [ 6.7593447, 7.7765706 ], [ 6.7591635, 7.7765696 ], [ 6.7591645, 7.7763888 ], [ 6.7591654, 7.776208 ], [ 6.7589842, 7.7762071 ], [ 6.7589861, 7.7758455 ], [ 6.758987, 7.7756648 ], [ 6.7588058, 7.7756638 ], [ 6.7588067, 7.775483 ], [ 6.7588077, 7.7753023 ], [ 6.7586265, 7.7753013 ], [ 6.7586274, 7.7751205 ], [ 6.7586293, 7.774759 ], [ 6.7584481, 7.774758 ], [ 6.7583031, 7.7741818 ], [ 6.7580894, 7.774033 ], [ 6.7580913, 7.7736715 ], [ 6.7579101, 7.7736705 ], [ 6.757912, 7.773309 ], [ 6.7577308, 7.773308 ], [ 6.7577317, 7.7731272 ], [ 6.7577327, 7.7729465 ], [ 6.7575514, 7.7729455 ], [ 6.7575524, 7.7727647 ], [ 6.7575533, 7.772584 ], [ 6.7573721, 7.772583 ], [ 6.7573731, 7.7724022 ], [ 6.7571918, 7.7724013 ], [ 6.7571928, 7.7722205 ], [ 6.7571937, 7.7720397 ], [ 6.7570125, 7.7720388 ], [ 6.7570134, 7.771858 ], [ 6.7568322, 7.771857 ], [ 6.7567531, 7.7715755 ], [ 6.7560569, 7.7700157 ], [ 6.7556809, 7.7686773 ], [ 6.7555807, 7.7685964 ], [ 6.7555817, 7.7684156 ], [ 6.7555826, 7.7682349 ], [ 6.7554014, 7.7682339 ], [ 6.7554024, 7.7680531 ], [ 6.7554043, 7.7676916 ], [ 6.755223, 7.7676906 ], [ 6.7552249, 7.7673291 ], [ 6.7552259, 7.7671483 ], [ 6.7550447, 7.7671473 ], [ 6.7548573, 7.7660111 ], [ 6.7546889, 7.76588 ], [ 6.7546908, 7.7655185 ], [ 6.7546966, 7.7644338 ], [ 6.7545153, 7.7644329 ], [ 6.7545163, 7.7642521 ], [ 6.7547489, 7.7641629 ], [ 6.7545172, 7.7640713 ], [ 6.7545192, 7.7637098 ], [ 6.7545268, 7.7622636 ], [ 6.7543456, 7.7622626 ], [ 6.7543475, 7.7619011 ], [ 6.7543494, 7.7615395 ], [ 6.7541682, 7.7615386 ], [ 6.7541701, 7.761177 ], [ 6.754172, 7.7608155 ], [ 6.7539908, 7.7608145 ], [ 6.7539917, 7.7606338 ], [ 6.7539927, 7.760453 ], [ 6.7538115, 7.760452 ], [ 6.7538134, 7.7600905 ], [ 6.753724, 7.7598585 ], [ 6.7536321, 7.7600895 ], [ 6.7536312, 7.7602703 ], [ 6.7534499, 7.7602693 ], [ 6.753447, 7.7608117 ], [ 6.7534442, 7.761354 ], [ 6.7532629, 7.761353 ], [ 6.7532562, 7.7626184 ], [ 6.7532533, 7.7631608 ], [ 6.7530721, 7.7631598 ], [ 6.7530682, 7.7638829 ], [ 6.7530673, 7.7640637 ], [ 6.752886, 7.7640627 ], [ 6.7528822, 7.7647858 ], [ 6.7528812, 7.7649666 ], [ 6.7527, 7.7649656 ], [ 6.7526971, 7.7655079 ], [ 6.7525158, 7.765507 ], [ 6.752513, 7.7660493 ], [ 6.752511, 7.7664108 ], [ 6.7523298, 7.7664099 ], [ 6.7523269, 7.7669522 ], [ 6.7523259, 7.767133 ], [ 6.7521447, 7.767132 ], [ 6.752136, 7.768759 ], [ 6.7523173, 7.7687599 ], [ 6.7523163, 7.7689407 ], [ 6.7522096, 7.7690251 ], [ 6.7523897, 7.7703069 ], [ 6.7524899, 7.7703878 ], [ 6.7524889, 7.7705686 ], [ 6.7523773, 7.7706475 ], [ 6.7525592, 7.7715782 ], [ 6.7526644, 7.7716542 ], [ 6.7526625, 7.7720158 ], [ 6.7526586, 7.7727389 ], [ 6.7528399, 7.7727398 ], [ 6.7529204, 7.7754274 ], [ 6.7528399, 7.7785495 ], [ 6.753166, 7.7788916 ], [ 6.75335, 7.7790697 ], [ 6.7537542, 7.7805212 ], [ 6.7539581, 7.7824257 ], [ 6.7540567, 7.7825083 ], [ 6.7540557, 7.782689 ], [ 6.7540442, 7.7848583 ], [ 6.7542254, 7.7848593 ], [ 6.7544437, 7.7876417 ], [ 6.7545725, 7.7877536 ], [ 6.7545716, 7.7879344 ], [ 6.7545696, 7.7882959 ], [ 6.7547509, 7.7882969 ], [ 6.7547499, 7.7884776 ], [ 6.7545687, 7.7884767 ], [ 6.7545677, 7.7886574 ], [ 6.7543865, 7.7886565 ], [ 6.7543855, 7.7888373 ], [ 6.7543836, 7.7891988 ], [ 6.7542023, 7.7891978 ], [ 6.7541975, 7.7901017 ], [ 6.7543787, 7.7901027 ], [ 6.7543759, 7.790645 ], [ 6.7543749, 7.7908258 ], [ 6.7543739, 7.7910065 ], [ 6.7543691, 7.7919104 ], [ 6.7545504, 7.7919114 ], [ 6.7545494, 7.7920921 ], [ 6.7545484, 7.7922729 ], [ 6.7547297, 7.7922739 ], [ 6.7547287, 7.7924546 ], [ 6.75491, 7.7924556 ], [ 6.754909, 7.7926364 ], [ 6.7549071, 7.7929979 ], [ 6.7550884, 7.7929989 ], [ 6.7550864, 7.7933604 ], [ 6.7552677, 7.7933614 ], [ 6.7552648, 7.7939037 ], [ 6.7554461, 7.7939047 ], [ 6.7554422, 7.7946278 ], [ 6.7556235, 7.7946287 ], [ 6.7556215, 7.7949903 ], [ 6.7558028, 7.7949912 ], [ 6.7558018, 7.795172 ], [ 6.7557999, 7.7955335 ], [ 6.7559812, 7.7955345 ], [ 6.7559773, 7.7962576 ], [ 6.7561586, 7.7962586 ], [ 6.7561567, 7.7966201 ], [ 6.7563379, 7.7966211 ], [ 6.756335, 7.7971634 ], [ 6.7565163, 7.7971643 ], [ 6.7565144, 7.7975259 ], [ 6.7566956, 7.7975269 ], [ 6.7566947, 7.7977076 ], [ 6.7566927, 7.7980692 ], [ 6.756874, 7.7980701 ], [ 6.756873, 7.7982509 ], [ 6.7568711, 7.7986125 ], [ 6.7570524, 7.7986134 ], [ 6.7570504, 7.798975 ], [ 6.7570427, 7.8004212 ], [ 6.757224, 7.8004221 ], [ 6.7572201, 7.8011452 ], [ 6.7572172, 7.8016875 ], [ 6.7573985, 7.8016885 ], [ 6.7573956, 7.8022308 ], [ 6.7575769, 7.8022318 ], [ 6.757575, 7.8025933 ], [ 6.757573, 7.8029549 ], [ 6.7577543, 7.8029558 ], [ 6.7577533, 7.8031366 ], [ 6.7577514, 7.8034981 ], [ 6.7579327, 7.8034991 ], [ 6.7579317, 7.8036799 ], [ 6.7579298, 7.8040414 ], [ 6.758111, 7.8040424 ], [ 6.7581101, 7.8042232 ], [ 6.7581081, 7.8045847 ], [ 6.7582894, 7.8045857 ], [ 6.7582875, 7.8049472 ], [ 6.7584687, 7.8049482 ], [ 6.7584678, 7.8051289 ], [ 6.758649, 7.8051299 ], [ 6.7586481, 7.8053107 ], [ 6.7586471, 7.8054915 ], [ 6.7588284, 7.8054924 ], [ 6.7588274, 7.8056732 ], [ 6.7588265, 7.805854 ], [ 6.7590077, 7.8058549 ], [ 6.7590068, 7.8060357 ], [ 6.7590048, 7.8063972 ], [ 6.7591861, 7.8063982 ], [ 6.7591851, 7.806579 ], [ 6.7593664, 7.8065799 ], [ 6.7593654, 7.8067607 ], [ 6.7593645, 7.8069415 ], [ 6.7595457, 7.8069424 ], [ 6.7595448, 7.8071232 ], [ 6.759726, 7.8071242 ], [ 6.7598049, 7.8075249 ], [ 6.7600857, 7.8076684 ], [ 6.7600828, 7.8082107 ], [ 6.7602641, 7.8082117 ], [ 6.7602621, 7.8085733 ], [ 6.7604434, 7.8085742 ], [ 6.7604424, 7.808755 ], [ 6.7606237, 7.8087559 ], [ 6.7606227, 7.8089367 ], [ 6.760804, 7.8089377 ], [ 6.760803, 7.8091185 ], [ 6.7609843, 7.8091194 ], [ 6.7609833, 7.8093002 ], [ 6.7611646, 7.8093011 ], [ 6.7611637, 7.8094819 ], [ 6.7615262, 7.8094838 ], [ 6.7615252, 7.8096646 ], [ 6.7617065, 7.8096656 ], [ 6.7617055, 7.8098464 ], [ 6.7618868, 7.8098473 ], [ 6.7619973, 7.8104704 ], [ 6.7623299, 7.8115937 ], [ 6.7633158, 7.8138288 ], [ 6.7644994, 7.8142839 ], [ 6.7644722, 7.8146006 ], [ 6.7652544, 7.81484 ], [ 6.7660063, 7.8157198 ], [ 6.7673884, 7.8159411 ], [ 6.7675588, 7.8157459 ], [ 6.7692046, 7.8155873 ], [ 6.769736, 7.8153959 ], [ 6.7720441, 7.8152157 ], [ 6.7736382, 7.8146415 ], [ 6.7744595, 7.8147117 ], [ 6.7761684, 7.8145838 ], [ 6.7773512, 7.8150879 ], [ 6.7778107, 7.815174 ], [ 6.7778097, 7.8153548 ], [ 6.7781723, 7.8153567 ], [ 6.7787886, 7.8161618 ], [ 6.7799026, 7.8160101 ], [ 6.7799831, 7.8157278 ], [ 6.7801804, 7.8156079 ], [ 6.7803179, 7.815176 ], [ 6.7801015, 7.8145318 ], [ 6.7799898, 7.8144623 ], [ 6.7799907, 7.8142816 ], [ 6.7799936, 7.8137392 ], [ 6.7798123, 7.8137383 ], [ 6.7798133, 7.8135575 ], [ 6.7798161, 7.8130152 ], [ 6.7796349, 7.8130142 ], [ 6.7796368, 7.8126527 ], [ 6.7794555, 7.8126517 ], [ 6.7794564, 7.8124709 ], [ 6.7794574, 7.8122902 ], [ 6.7792761, 7.8122892 ], [ 6.7792771, 7.8121084 ], [ 6.7790958, 7.8121075 ], [ 6.7790968, 7.8119267 ], [ 6.7790977, 7.8117459 ], [ 6.7789165, 7.811745 ], [ 6.7789174, 7.8115642 ], [ 6.7789184, 7.8113834 ], [ 6.7787371, 7.8113825 ], [ 6.7787381, 7.8112017 ], [ 6.778739, 7.8110209 ], [ 6.7785577, 7.81102 ], [ 6.7785587, 7.8108392 ], [ 6.7783774, 7.8108382 ], [ 6.7783784, 7.8106575 ], [ 6.7781971, 7.8106565 ], [ 6.7781981, 7.8104757 ], [ 6.7783015, 7.810394 ], [ 6.7781256, 7.8089287 ], [ 6.7779252, 7.8084004 ], [ 6.7779494, 7.8082147 ], [ 6.7778954, 7.8077624 ], [ 6.7779542, 7.8073108 ], [ 6.777932, 7.8071248 ], [ 6.7783014, 7.8061812 ], [ 6.7781215, 7.8047516 ], [ 6.777409, 7.8031556 ], [ 6.7774344, 7.8029607 ], [ 6.7768701, 7.8026148 ], [ 6.7766298, 7.8023123 ], [ 6.7763269, 7.8020678 ], [ 6.7763739, 7.8017065 ], [ 6.7761507, 7.8015263 ], [ 6.7760726, 7.801064 ], [ 6.7762939, 7.8010032 ], [ 6.7761358, 7.8008439 ], [ 6.7760726, 7.801064 ], [ 6.7756032, 7.8009876 ], [ 6.7754582, 7.8004114 ], [ 6.7750127, 7.7997213 ], [ 6.7745232, 7.7995357 ], [ 6.7742715, 7.799168 ], [ 6.7738011, 7.7989896 ], [ 6.7734644, 7.7987684 ], [ 6.7731324, 7.7988408 ], [ 6.7729329, 7.798048 ], [ 6.772826, 7.7979736 ], [ 6.772827, 7.7977928 ], [ 6.7726457, 7.7977919 ], [ 6.7724658, 7.7975387 ], [ 6.7722832, 7.79779 ], [ 6.7721813, 7.7977107 ], [ 6.7720254, 7.797325 ], [ 6.7711941, 7.7963363 ], [ 6.7696571, 7.7951665 ], [ 6.7694965, 7.7949567 ], [ 6.7688183, 7.7946197 ], [ 6.7685928, 7.7951609 ], [ 6.768328, 7.795317 ], [ 6.7680501, 7.7949539 ], [ 6.7679482, 7.7948747 ], [ 6.7679492, 7.7946939 ], [ 6.7677679, 7.7946929 ], [ 6.7673109, 7.7939952 ], [ 6.7672328, 7.7930631 ], [ 6.7672337, 7.7928823 ], [ 6.7670525, 7.7928814 ], [ 6.7666123, 7.7916972 ], [ 6.7658671, 7.7899059 ], [ 6.7659127, 7.7893745 ], [ 6.7655285, 7.7884509 ], [ 6.7653656, 7.7875327 ], [ 6.7650357, 7.7872463 ], [ 6.7646718, 7.7851952 ], [ 6.7645561, 7.7850947 ], [ 6.7641974, 7.7843718 ], [ 6.7638358, 7.784187 ], [ 6.7638377, 7.7838254 ], [ 6.7636565, 7.7838245 ], [ 6.7634886, 7.7832269 ], [ 6.7626404, 7.7817701 ], [ 6.7620497, 7.7803512 ], [ 6.7614987, 7.7805591 ], [ 6.7615006, 7.7801975 ], [ 6.7613193, 7.7801966 ], [ 6.7613203, 7.7800158 ], [ 6.7611391, 7.7800148 ], [ 6.76114, 7.7798341 ], [ 6.761226, 7.779739 ], [ 6.761729, 7.779512 ], [ 6.7613516, 7.7786804 ], [ 6.7608766, 7.779205 ], [ 6.7607804, 7.7792898 ], [ 6.7607813, 7.779109 ], [ 6.7607833, 7.7787475 ], [ 6.760602, 7.7787465 ], [ 6.7606039, 7.778385 ], [ 6.7604227, 7.778384 ], [ 6.7604236, 7.7782033 ], [ 6.7602424, 7.7782023 ], [ 6.7602433, 7.7780215 ], [ 6.7600621, 7.7780206 ], [ 6.760063, 7.7778398 ], [ 6.7603445, 7.7779217 ], [ 6.7606859, 7.7781242 ], [ 6.7610676, 7.778287 ], [ 6.7616824, 7.7786519 ], [ 6.7620521, 7.7781093 ], [ 6.761706, 7.7768775 ], [ 6.7611561, 7.7768063 ], [ 6.7607026, 7.7768601 ], [ 6.7605133, 7.7768356 ], [ 6.7603492, 7.7770378 ], [ 6.7599542, 7.7773499 ], [ 6.760063, 7.7778398 ] ], [ [ 6.7600603, 7.7764528 ], [ 6.7615524, 7.7766659 ], [ 6.7617877, 7.7760631 ], [ 6.7612386, 7.7755863 ], [ 6.7616093, 7.7752712 ], [ 6.7617943, 7.7748072 ], [ 6.7601685, 7.7737796 ], [ 6.7600851, 7.773682 ], [ 6.759081, 7.7737604 ], [ 6.7589119, 7.774018 ], [ 6.7606969, 7.7752715 ], [ 6.759792, 7.7751942 ], [ 6.7600603, 7.7764528 ] ], [ [ 6.7589873, 7.7681339 ], [ 6.7591454, 7.7682933 ], [ 6.7592086, 7.7680732 ], [ 6.7589873, 7.7681339 ] ], [ [ 6.7597142, 7.7677762 ], [ 6.7598723, 7.7679356 ], [ 6.7599355, 7.7677155 ], [ 6.7597142, 7.7677762 ] ], [ [ 6.7588576, 7.765902 ], [ 6.7589185, 7.7661228 ], [ 6.7590782, 7.7659651 ], [ 6.7588576, 7.765902 ], [ 6.758758, 7.7656665 ], [ 6.7584461, 7.7658274 ], [ 6.7588576, 7.765902 ] ], [ [ 6.757878, 7.7648317 ], [ 6.7583039, 7.7650571 ], [ 6.7581393, 7.7646328 ], [ 6.757878, 7.7648317 ] ], [ [ 6.7577387, 7.764331 ], [ 6.7578968, 7.7644904 ], [ 6.75796, 7.7642703 ], [ 6.7577387, 7.764331 ] ], [ [ 6.747628, 7.7643964 ], [ 6.7474067, 7.7644571 ], [ 6.7475647, 7.7646165 ], [ 6.747628, 7.7643964 ] ], [ [ 6.7499639, 7.7682051 ], [ 6.7497278, 7.7683044 ], [ 6.7498892, 7.7686156 ], [ 6.7499639, 7.7682051 ] ], [ [ 6.7515201, 7.7823141 ], [ 6.7513388, 7.7823131 ], [ 6.7514648, 7.7817835 ], [ 6.7504345, 7.7819467 ], [ 6.7505182, 7.7816677 ], [ 6.7512445, 7.7799936 ], [ 6.7508912, 7.7796978 ], [ 6.7508105, 7.7794178 ], [ 6.7509917, 7.7794188 ], [ 6.7509927, 7.779238 ], [ 6.7513552, 7.77924 ], [ 6.7513571, 7.7788784 ], [ 6.7513591, 7.7785169 ], [ 6.751361, 7.7781553 ], [ 6.7511797, 7.7781544 ], [ 6.7511807, 7.7779736 ], [ 6.751362, 7.7779745 ], [ 6.7513774, 7.7750822 ], [ 6.7513783, 7.7749014 ], [ 6.7513822, 7.7741783 ], [ 6.7513831, 7.7739975 ], [ 6.751388, 7.7730937 ], [ 6.7512067, 7.7730927 ], [ 6.7512096, 7.7725504 ], [ 6.7512115, 7.7721889 ], [ 6.7510303, 7.7721879 ], [ 6.7510322, 7.7718264 ], [ 6.7510332, 7.7716456 ], [ 6.7508519, 7.7716446 ], [ 6.7508538, 7.7712831 ], [ 6.7508558, 7.7709215 ], [ 6.7506745, 7.7709206 ], [ 6.7506764, 7.770559 ], [ 6.7506784, 7.7701975 ], [ 6.7504971, 7.7701965 ], [ 6.750499, 7.769835 ], [ 6.7504195, 7.7694311 ], [ 6.7500251, 7.7692364 ], [ 6.7499514, 7.7705552 ], [ 6.7497702, 7.7705542 ], [ 6.7497663, 7.7712773 ], [ 6.7495851, 7.7712764 ], [ 6.7495812, 7.7719994 ], [ 6.7495803, 7.7721802 ], [ 6.749399, 7.7721793 ], [ 6.7493961, 7.7727216 ], [ 6.7493942, 7.7730831 ], [ 6.749213, 7.7730822 ], [ 6.749211, 7.7734437 ], [ 6.7492091, 7.7738052 ], [ 6.7490278, 7.7738043 ], [ 6.7490259, 7.7741658 ], [ 6.749024, 7.7745274 ], [ 6.7488427, 7.7745264 ], [ 6.7488398, 7.7750687 ], [ 6.7488389, 7.7752495 ], [ 6.7488379, 7.7754303 ], [ 6.748837, 7.775611 ], [ 6.7485746, 7.775851 ], [ 6.7490974, 7.778411 ], [ 6.749281, 7.7800137 ], [ 6.7496334, 7.7820978 ], [ 6.7495966, 7.7829143 ], [ 6.7497963, 7.7832957 ], [ 6.7500501, 7.7838394 ], [ 6.7505204, 7.7834873 ], [ 6.750609, 7.7832131 ], [ 6.7507076, 7.7832957 ], [ 6.7509368, 7.7838306 ], [ 6.7513379, 7.7824939 ], [ 6.7515191, 7.7824948 ], [ 6.7515201, 7.7823141 ], [ 6.7517414, 7.7822533 ], [ 6.7515833, 7.782094 ], [ 6.7515201, 7.7823141 ] ], [ [ 6.7463996, 7.7907834 ], [ 6.7466534, 7.790604 ], [ 6.7464015, 7.7904219 ], [ 6.7462202, 7.7904209 ], [ 6.7459664, 7.7906003 ], [ 6.7462183, 7.7907824 ], [ 6.7463077, 7.7910144 ], [ 6.7463996, 7.7907834 ] ], [ [ 6.7463899, 7.7925911 ], [ 6.7461686, 7.7926518 ], [ 6.7463267, 7.7928112 ], [ 6.7463899, 7.7925911 ] ], [ [ 6.7518238, 7.7933431 ], [ 6.7513856, 7.7936414 ], [ 6.751662, 7.7939582 ], [ 6.7518238, 7.7933431 ] ], [ [ 6.7528418, 7.8063645 ], [ 6.7528438, 7.806003 ], [ 6.7526625, 7.806002 ], [ 6.7525741, 7.8055814 ], [ 6.7524812, 7.8060011 ], [ 6.7524774, 7.8067241 ], [ 6.7524745, 7.8072665 ], [ 6.7526557, 7.8072674 ], [ 6.7526548, 7.8074482 ], [ 6.752836, 7.8074492 ], [ 6.7530899, 7.8072697 ], [ 6.752838, 7.8070876 ], [ 6.7528418, 7.8063645 ] ], [ [ 6.7587776, 7.8072128 ], [ 6.759, 7.8073011 ], [ 6.7589981, 7.8076627 ], [ 6.7589971, 7.8078434 ], [ 6.7591784, 7.8078444 ], [ 6.7591774, 7.8080252 ], [ 6.7590286, 7.8083198 ], [ 6.7593568, 7.8083877 ], [ 6.7593558, 7.8085684 ], [ 6.7595371, 7.8085694 ], [ 6.7595361, 7.8087502 ], [ 6.7597174, 7.8087511 ], [ 6.7597164, 7.8089319 ], [ 6.7598977, 7.8089329 ], [ 6.7600784, 7.809294 ], [ 6.7604386, 7.8094781 ], [ 6.7604376, 7.8096589 ], [ 6.7606189, 7.8096598 ], [ 6.7606179, 7.8098406 ], [ 6.7607992, 7.8098415 ], [ 6.7607982, 7.8100223 ], [ 6.7609795, 7.8100233 ], [ 6.7609785, 7.8102041 ], [ 6.7611598, 7.810205 ], [ 6.7612918, 7.8106507 ], [ 6.7615214, 7.8103877 ], [ 6.7615223, 7.8102069 ], [ 6.7615233, 7.8100262 ], [ 6.761342, 7.8100252 ], [ 6.761343, 7.8098444 ], [ 6.7611617, 7.8098435 ], [ 6.7611627, 7.8096627 ], [ 6.7609814, 7.8096617 ], [ 6.7608002, 7.8096608 ], [ 6.7608011, 7.80948 ], [ 6.7606199, 7.809479 ], [ 6.7606208, 7.8092983 ], [ 6.7604395, 7.8092973 ], [ 6.760319, 7.8090566 ], [ 6.7600789, 7.8089338 ], [ 6.7600799, 7.8087531 ], [ 6.7600809, 7.8085723 ], [ 6.7598996, 7.8085713 ], [ 6.7599006, 7.8083906 ], [ 6.7599015, 7.8082098 ], [ 6.7597203, 7.8082088 ], [ 6.7597212, 7.808028 ], [ 6.7597222, 7.8078473 ], [ 6.7595409, 7.8078463 ], [ 6.7593616, 7.8074838 ], [ 6.7593625, 7.807303 ], [ 6.7591813, 7.8073021 ], [ 6.7590915, 7.8070699 ], [ 6.7587776, 7.8072128 ] ], [ [ 6.7617007, 7.8107502 ], [ 6.7614394, 7.8109492 ], [ 6.7618654, 7.8111745 ], [ 6.7617007, 7.8107502 ] ], [ [ 6.7791388, 7.8039726 ], [ 6.7791378, 7.8041533 ], [ 6.7793178, 7.8044065 ], [ 6.7795004, 7.8041552 ], [ 6.7795013, 7.8039745 ], [ 6.7793214, 7.8037213 ], [ 6.7791388, 7.8039726 ] ], [ [ 6.7789594, 7.8036101 ], [ 6.7787381, 7.8036708 ], [ 6.7788962, 7.8038301 ], [ 6.7789594, 7.8036101 ] ], [ [ 6.7618121, 7.7795766 ], [ 6.7619734, 7.7798877 ], [ 6.7620482, 7.7794773 ], [ 6.7618121, 7.7795766 ] ], [ [ 6.7622352, 7.7783936 ], [ 6.7620139, 7.7784543 ], [ 6.762172, 7.7786137 ], [ 6.7622352, 7.7783936 ], [ 6.7624713, 7.7782943 ], [ 6.76231, 7.7779832 ], [ 6.7622352, 7.7783936 ] ], [ [ 6.7524799, 7.7571106 ], [ 6.7515723, 7.7573642 ], [ 6.7517281, 7.7583721 ], [ 6.7519276, 7.7587147 ], [ 6.7523801, 7.7598017 ], [ 6.7529911, 7.7590969 ], [ 6.7530743, 7.7584574 ], [ 6.7528155, 7.7580128 ], [ 6.7528398, 7.7578256 ], [ 6.7527422, 7.7570116 ], [ 6.7524799, 7.7571106 ] ], [ [ 6.7566736, 7.7495249 ], [ 6.7564968, 7.7506189 ], [ 6.7562986, 7.7509781 ], [ 6.7567065, 7.753683 ], [ 6.7572592, 7.75339 ], [ 6.7575647, 7.7524215 ], [ 6.7582516, 7.752466 ], [ 6.7588321, 7.7514138 ], [ 6.7577563, 7.7504447 ], [ 6.7575872, 7.7500721 ], [ 6.7572154, 7.7498995 ], [ 6.7571323, 7.7494421 ], [ 6.7566736, 7.7495249 ] ], [ [ 6.7933764, 7.8181701 ], [ 6.7941675, 7.817743 ], [ 6.7939335, 7.8172471 ], [ 6.7933551, 7.8173212 ], [ 6.7929598, 7.8178369 ], [ 6.7933764, 7.8181701 ] ], [ [ 6.783302, 7.8394276 ], [ 6.7831208, 7.8394266 ], [ 6.7831217, 7.8392458 ], [ 6.7829404, 7.8392449 ], [ 6.7828192, 7.8390027 ], [ 6.7825469, 7.8391853 ], [ 6.7828175, 7.8397258 ], [ 6.7829376, 7.8397872 ], [ 6.7829366, 7.839968 ], [ 6.7829357, 7.8401487 ], [ 6.7834795, 7.8401516 ], [ 6.7834805, 7.8399708 ], [ 6.7834814, 7.8397901 ], [ 6.7834824, 7.8396093 ], [ 6.7833011, 7.8396083 ], [ 6.783302, 7.8394276 ] ] ] } }
]
}
